Source,Type,MemberOrganizations,Address1,Address2,City,State,ZIP,Phone,Website,Email,full_address,Latitude,Longitude
Curated using Google,Historical Society,Lower Township Historical Society,513 Hughes St,NA,Cape May,NJ,08204,NA,NA,NA,"513 Hughes St, Cape May, NJ, 08204",38.9320932,-74.9217099
Curated using Google,Bookstore,Cape Atlantic Book Company,421 Washington Street,NA,Cape May,NJ,08204,NA,NA,NA,"421 Washington Street, Cape May, NJ, 08204",38.9326249,-74.9231962
League of Historical Societies of NJ,Historical Society,Greater Cape May Historical Society,653 ½ Washington Street,P.O. Box 495,Cape May,NJ,08204,609-884-9100,capemayhistory.org,NA,653 1/2 Washington Street,38.9342336,-74.9205656
Curated using Google,Museum,NJ Museum of Boating,100 Sunset Blvd,NA,Cape May,NJ,08204,NA,NA,NA,"100 Sunset Blvd, Cape May, NJ, 08204",38.935622,-74.9325055
Curated using Google,Historical Society,Mid-Atlantic Center for the Arts & Humanities,1048 Washington St,NA,Cape May,NJ,08204,NA,NA,NA,"1048 Washington St, Cape May, NJ, 08204",38.9400332,-74.9155207
Stockton SJCHC Historical Cultural Sites,Historical Society,Emlen Physick Estate,1048 Washington St.,NA,Cape May,NJ,08204,"(609)884-5404
",https://capemaymac.org/,NA,"1048 Washington St., Cape May, NJ, 8204",38.9400332,-74.9155207
League of Historical Societies of NJ,Cultural Site,Mid-Atlantic Center for the Arts & Humanities,1048 Washington St.,P.O. Box 340,Cape May,NJ,08204,800-275-4278,capemaymac.org,NA,"1048 Washington St., Cape May, NJ, 8204",38.9400332,-74.9155207
Curated using Google,Historical Society,West Cape May Historical Society,732 Broadway,NA,West Cape May,NJ,08204,NA,NA,NA,"732 Broadway, West Cape May, NJ, 08204",38.9416839,-74.9303252
Curated using Google,Marine,Cape May Whale Watcher,1218 Wilson Dr,NA,Cape May,NJ,08204,NA,NA,NA,"1218 Wilson Dr, Cape May, NJ, 08204",38.9498415,-74.910697
League of Historical Societies of NJ,Cultural Site,Borough of Wildwood Crest,6101 Pacific Avenue,NA,Wildwood,NJ,08260,609-729-8043,NA,dcabrera@wildwoodcrest.org,"6101 Pacific Avenue, Wildwood, NJ, 8260",38.976773,-74.83101
League of Historical Societies of NJ,Organization,Preserving the Wildwoods,NA,P.O. Box 2538,Wildwood,NJ,08260,609-886-8577,https://www.preservingthewildwoods.com,NA,"NA, Wildwood, NJ, 8260",38.9841969,-74.8142502
League of Historical Societies of NJ,Organization,Partners in Preservation,NA,P.O. Box 2538,Wildwood,NJ,08260,609-729-4515,wildwoodnjhistory.com,NA,"NA, Wildwood, NJ, 8260",38.9841969,-74.8142502
Stockton SJCHC Historical Societies & Museums,Museum,George F. Boye Historical Museum,3907 Pacific Avenue,NA,Wildwood,NJ,08260,609-523-0277,http://www.funchase.com/Museum.htm,NA,"3907 Pacific Avenue, Wildwood, NJ, 8260",38.9874352,-74.81643
League of Historical Societies of NJ,Historical Society,Wildwood Historical Society,3907 Pacific Avenue,NA,Wildwood,NJ,08260,609-523-0277,wildwoodhistoricalmuseum.com,NA,"3907 Pacific Avenue, Wildwood, NJ, 8260",38.9874352,-74.81643
League of Historical Societies of NJ,Lighthouse,Lighthouse Keepers of New Jersey,397 Corson Lane,NA,Cape May,NJ,08204,609-886-8577,NA,parytell@gmail.com,"397 Corson Lane, Cape May, NJ, 8204",39.0017215,-74.8873165
Stockton SJCHC Historical Cultural Sites,Lighthouse,Hereford Inlet Lighthouse,111 North Central Avenue,NA,North Wildwood,NJ,08260,NA,http://www.herefordlighthouse.org/,NA,"111 North Central Avenue, North Wildwood, NJ, 8260",39.0068063,-74.7915647
League of Historical Societies of NJ,Museum,Stone Harbor Museum,235 93rd Street,NA,Stone Harbor,NJ,08247,609-368-7500,stoneharbormuseum.org,NA,"235 93rd Street, Stone Harbor, NJ, 8247",39.0557372,-74.7578569
League of Historical Societies of NJ,Historical Society,Avalon Historical Society,215 39th Street,NA,Avalon,NJ,08202,609-967-0090,avalonhistoricalsociety.org,NA,"215 39th Street, Avalon, NJ, 8202",39.0906194,-74.7282253
League of Historical Societies of NJ,Cultural Site,Div. of Culture & Heritage Cape May County,4 Moore Road,NA,Cape May Court House,NJ,08210,609-465-1066,cmcculture.net,NA,"4 Moore Road, Cape May Court House, NJ, 8210",39.1000139,-74.804515
Stockton SJCHC Historical Cultural Sites,Lighthouse,East Point Lighthouse,10 Lighthouse Rd,NA,Maurice River,NJ,08349,NA,https://eastpointlight.com/,NA,"10 Lighthouse Rd, Maurice River, NJ, 8349",39.1963905,-75.0257063
Curated using Google,Museum,Dennis Township Museum and History Center,571 Petersburg Rd,NA,Dennisville,NJ,08214,NA,NA,NA,"571 Petersburg Rd, Dennisville, NJ, 08214",39.1966662,-74.8117455
League of Historical Societies of NJ,Cultural Site,Bayshore Center at Bivalve,2800 High Street,NA,Bivalve Port Norris,NJ,08349,856-785-2060,bayshorecenter.org,NA,"2800 High Street, Bivalve Port Norris, NJ, 8349",39.2332323,-75.0336503
Stockton SJCHC Historical Societies & Museums,Museum,Sam Azeez Museum of Woodbine Heritage,610 Washington Avenue,NA,Woodbine,NJ,08270,NA,https://woodbinemuseum.org/,NA,"610 Washington Avenue, Woodbine, NJ, 8270",39.2398161,-74.8174809
Stockton SJCHC Historical Societies & Museums,Museum,Dennis Township Museum and History Center,681 Petersburg Rd,NA,Woodbine,NJ,08270,NA,NA,NA,"681 Petersburg Rd, Woodbine, NJ, 8270",39.2490269,-74.7387292
League of Historical Societies of NJ,Historical Society,Historical Preservation Society of Upper Twp.,NA,P.O. Box 658,Marmora,NJ,08223,609-628-2902,uppertwphistory.org,UpperTwpHistory@yahoo.com,"NA, Marmora, NJ, 8223",39.2667819,-74.644881
League of Historical Societies of NJ,Museum,Ocean City Historical Museum,1735 Simpson Avenue,NA,Ocean City,NJ,08226,609-399-1801,ocnjmuseum.org,NA,"1735 Simpson Avenue, Ocean City, NJ, 8226",39.2713679,-74.5902675
Curated using Google,Gift shop,Sun Rose Words & Music,756 Asbury Avenue,NA,Ocean City,NJ,08226,NA,NA,NA,"756 Asbury Avenue, Ocean City, NJ, 08226",39.2804826,-74.5743269
Curated using Google,Historical Society,Corbin City Historical Society,307 Tuckahoe Rd,NA,Corbin City,NJ,08270,NA,NA,NA,"307 Tuckahoe Rd, Corbin City, NJ, 08270",39.2952023,-74.7522785
League of Historical Societies of NJ,Historical Society,Longport Historical Society,2305 Atlantic Avenue,NA,Longport,NJ,08403,609-823-1115,longporthistoricalsociety.org,lhsinfo2@yahoo.com,"2305 Atlantic Avenue, Longport, NJ, 8403",39.3120878,-74.5277234
Curated using Google,Historical Society,Somers Point Historical Society,745 Shore Rd,NA,Somers Point,NJ,08244,NA,NA,NA,"745 Shore Rd, Somers Point, NJ, 08244",39.3174067,-74.5931965
League of Historical Societies of NJ,Historical Society,Somers Point Historical Society,745 Shore Road,P.O. Box 517,Somers Point,NJ,08244,609-927-2900,somerspointhistory.org,NA,"745 Shore Road, Somers Point, NJ, 8244",39.3174067,-74.5931965
League of Historical Societies of NJ,Historical Society,Atlantic County Historical Society,907 Shore Road,P.O. Box 301,Somers Point,NJ,08244,609-927-5218,atlanticcountyhistoricalsocietynj.org,NA,"907 Shore Road, Somers Point, NJ, 8244",39.3174067,-74.5931965
Stockton SJCHC Historical Cultural Sites,Cultural Site,Lucy the Elephant,9200 Atlantic Ave,NA,Margate City,NJ,08402,NA,http://www.lucytheelephant.org/,NA,"9200 Atlantic Ave, Margate City, NJ, 8402",39.3208361,-74.5116104
League of Historical Societies of NJ,Historical Society,Margate Historical Society,NA,P.O. Box 3001,Margate City,NJ,08402,609-823-6546,margatelibrary.org/index.php/historical-society,gwen@margatelibrary.org,"NA, Margate City, NJ, 8402",39.327894,-74.5034858
Stockton SJCHC Historical Societies & Museums,Historical Society,Linwood Historical Society,16 W Poplar Avenue,NA,Linwood,NJ,08221,NA,http://www.linwoodnj.org/,NA,"16 W Poplar Avenue, Linwood, NJ, 08221",39.350991,-74.5673985
Curated using Google,Museum,Noyes Arts Garage,2200 Fairmount Ave,NA,Atlantic City,NJ,08401,NA,NA,NA,"2200 Fairmount Ave, Atlantic City, NJ, 08401",39.3601489,-74.4404179
Curated using Google,Museum,Atlantic City Historical Museum,Garden Pier,NA,Atlantic City,NJ,08401,NA,NA,NA,"Garden Pier, Atlantic City, NJ, 08401",39.3603983,-74.4153351
League of Historical Societies of NJ,Lighthouse,Absecon Lighthouse,31 South Rhode Island Avenue,NA,Atlantic City,NJ,08401,609-449-1360,abseconlighthouse.org,NA,"31 South Rhode Island Avenue, Atlantic City, NJ, 8401",39.3662273,-74.4143604
Stockton SJCHC Historical Societies & Museums,Cultural Site,Risley Homestead,8 Virginia Ave,NA,Northfield,NJ,08225,609 927 5218,NA,NA,"8 Virginia Ave, Northfield, NJ, 8225",39.3756042,-74.5392223
Curated using Google,Historical Society,Cumberland County Historical Society,981 Ye Greate St,NA,Greenwich,NJ,08323,NA,NA,NA,"981 Ye Greate St, Greenwich, NJ, 08323",39.3904592,-75.3395813
Stockton SJCHC Historical Cultural Sites,Cultural Site,Gibbon House,960 Greate Street,NA,Greenwich,NJ,08323,NA,NA,NA,"960 Greate Street, Greenwich, NJ, 8323",39.3924339,-75.3407462
League of Historical Societies of NJ,Historical Society,Cumberland County Historical Society,960 Ye Greate Street,P.O. Box 16,Greenwich,NJ,08323,856-455-8580,cchistsoc.org,NA,"960 Ye Greate Street, Greenwich, NJ, 8323",39.3924339,-75.3407462
Curated using Google,Marine,Marine Mammal Stranding Center,3625 Atlantic Brigantine Blvd,NA,Brigantine,NJ,08203,NA,NA,NA,"3625 Atlantic Brigantine Blvd, Brigantine, NJ, 08203",39.3948318,-74.3909484
Curated using Google,Historical Society,Brigantine Beach Historical Museum and Society,3607 Atlantic Brigantine Blvd,NA,Brigantine,NJ,08203,NA,NA,NA,"3607 Atlantic Brigantine Blvd, Brigantine, NJ, 08203",39.3948565,-74.3901988
Curated using Google,Organization,Friends of the Maurice River,17 E Main St,NA,Millville,NJ,08332,NA,NA,NA,"17 E Main St, Millville, NJ, 08332",39.3952833,-75.0394141
League of Historical Societies of NJ,Historical Society,Millville Historical Society,200 E. Main Street,NA,Millville,NJ,08332,856-293-1078,www.millhistsoc.org,NA,"200 E. Main Street, Millville, NJ, 8332",39.395468,-75.036877
Curated using Google,Bookstore,The Book Trader,110 North High Street,NA,Millville,NJ,08332,NA,NA,NA,"110 North High Street, Millville, NJ, 08332",39.3964466,-75.0385686
Curated using Google,Bookstore,Bogart's Bookstore & Cafe,210 North High Street,NA,Millville,NJ,08332,NA,NA,NA,"210 North High Street, Millville, NJ, 08332",39.3974997,-75.0385782
Stockton SJCHC Historical Societies & Museums,Historical Society,Brigantine Beach Historical Museum and Society,1417 West Brigantine Avenue,NA,Brigantine,NJ,08203,609-266-7600,http://www.brigantinebeachnj.com/history_museum.html,NA,"1417 West Brigantine Avenue, Brigantine, NJ, 8203",39.402341,-74.3739388
League of Historical Societies of NJ,Historical Society,Greater Egg Harbour Township Historical Society,6647 West Jersey Avenue,NA,Egg Harbor Township,NJ,08234,609-813-2002,gehthsmuseum.org,NA,"6647 West Jersey Avenue, Egg Harbor Township, NJ, 8234",39.407287,-74.5774999
League of Historical Societies of NJ,Cultural Site,Wheaton Arts & Cultural Center,1501 Glasstown Road,NA,Millville,NJ,08332,856-825-6800,http://www.wheatonvillage.org/,mail@wheatonarts.org,"1501 Glasstown Road, Millville, NJ, 8332",39.4106948,-75.0205985
Stockton SJCHC Historical Societies & Museums,Cultural Site,Down JerseyÂ Folklife Center,1502 Glasstown Road,NA,Millville,NJ,08332,NA,https://visitnj.org/down-jersey-folklife-center,NA,"1502 Glasstown Road, Millville, NJ, 8332",39.4117777,-75.0228824
Curated using Google,Historical Society,Egg Harbor Township Historical Society,6647 Delilah Rd,NA,Egg Harbor Township,NJ,08234,NA,NA,NA,"6647 Delilah Rd, Egg Harbor Township, NJ, 08234",39.4172018,-74.5421681
Curated using Google,Historical Society,Dorothy Historical Society,6611 Black Horse Pike,NA,Egg Harbor Township,NJ,08234,NA,NA,NA,"6611 Black Horse Pike, Egg Harbor Township, NJ, 08234",39.417682,-74.58149
Stockton SJCHC Historical Cultural Sites,Cultural Site,New Sweden Colonial Farmstead,50 E BROAD ST,NA,BRIDGETON,NJ,08302,NA,NA,NA,"50 E BROAD ST, BRIDGETON, NJ, 8302",39.4271208,-75.2349017
Curated using Google,Historical Society,Bridgeton Renaissance League,14 E Commerce St,NA,Bridgeton,NJ,08302,NA,NA,NA,"14 E Commerce St, Bridgeton, NJ, 08302",39.4281781,-75.2262715
League of Historical Societies of NJ,Cultural Site,Cumberland County Cultural & Heritage Commission,164 West Broad Street,NA,Bridgeton,NJ,08302,856-453-2175,co.cumberland.nj.us/culturalandheritagecommission,mattpi@co.cumberland.nj.us,"164 West Broad Street, Bridgeton, NJ, 8302",39.4287328,-75.2425728
Curated using Google,Historical Society,Greenfield Historical Society,343 N Shore Rd,NA,Absecon,NJ,08201,NA,NA,NA,"343 N Shore Rd, Absecon, NJ, 08201",39.4291096,-74.4951588
Curated using Google,Organization,Mays Landing Merchants Association,6176 Harding Hwy,NA,Mays Landing,NJ,08330,NA,NA,NA,"6176 Harding Hwy, Mays Landing, NJ, 08330",39.4477812,-74.7368146
Curated using Google,Education,Seabrook Educational and Cultural Center,133 Polk Ln,NA,Bridgeton,NJ,08302,NA,NA,NA,"133 Polk Ln, Bridgeton, NJ, 08302",39.448152,-75.229915
Curated using Google,Historical Society,Franklin Township Historical Society,375 S Main Rd,NA,Vineland,NJ,08360,NA,NA,NA,"375 S Main Rd, Vineland, NJ, 08360",39.4488719,-75.013589
Stockton SJCHC Historical Societies & Museums,Historical Society,Township of Hamilton Historical Society,49 Mill Street,P.O. Box 482,Mays Landing,NJ,08330,(609) 909-0272,http://www.hamiltonhistorical.com/,NA,"49 Mill Street, Mays Landing, NJ, 8330",39.451453,-74.7361444
League of Historical Societies of NJ,Historical Society,Hamilton Historical Society,NA,PO Box 482,Mays Landing,NJ,08330,609-909-0272,hamiltontownshiphistorical.org,NA,"NA, Mays Landing, NJ, 8330",39.4523326,-74.727661
Curated using Google,Bookstore,Booktrader of Hamilton,4403 Black Horse Pike,NA,Mays Landing,NJ,08330,NA,NA,NA,"4403 Black Horse Pike, Mays Landing, NJ, 08330",39.4542478,-74.6439128
Curated using Google,Historical Society,Township of Hamilton Historical Society,6101 13th St,NA,Mays Landing,NJ,08330,NA,NA,NA,"6101 13th St, Mays Landing, NJ, 08330",39.463578,-74.722758
Curated using Google,Museum,Noyes Museum of Art,733 Lily Lake Rd,NA,Oceanville,NJ,08231,NA,NA,NA,"733 Lily Lake Rd, Oceanville, NJ, 08231",39.4666023,-74.4593604
Curated using Google,Historical Society,Galloway Township Historical Society,306 E Jimmie Leeds Rd,NA,Galloway,NJ,08205,NA,NA,NA,"306 E Jimmie Leeds Rd, Galloway, NJ, 08205",39.4726507,-74.5162502
League of Historical Societies of NJ,Historical Society,Buena Historical Society,5174 Landis Avenue,NA,Vineland,NJ,08360,856-466-4654,NA,Casazza5174@comcast.net,"5174 Landis Avenue, Vineland, NJ, 8360",39.4801411,-74.898334
Curated using Google,Historical Society,Vineland Historical and Antiquarian Society,108 S 7th St,NA,Vineland,NJ,08360,NA,NA,NA,"108 S 7th St, Vineland, NJ, 08360",39.4847323,-75.0212901
League of Historical Societies of NJ,Historical Society,Vineland Historical & Antiquarian Society,108 S. 7th St.,P.O. Box 35,Vineland,NJ,08362,856-691-1111,discovervinelandhistory.org,NA,"108 S. 7th St., Vineland, NJ, 8362",39.4847323,-75.0212901
Curated using Google,Historical Society,Historic Smithville,615 E Moss Mill Rd,NA,Smithville,NJ,08205,NA,NA,NA,"615 E Moss Mill Rd, Smithville, NJ, 08205",39.4959595,-74.4608158
Curated using Google,Historical Society,Lower Alloways Creek Township Historical Society,501 Locust Island Rd,NA,Hancocks Bridge,NJ,08038,NA,NA,NA,"501 Locust Island Rd, Hancocks Bridge, NJ, 08038",39.504571,-75.456315
Curated using Google,Education,Underground Railroad Educational Center,300 N New York Rd,NA,Galloway,NJ,08205,NA,NA,NA,"300 N New York Rd, Galloway, NJ, 08205",39.53103,-74.462646
Curated using Google,Historical Society,The Historical Preservation Society of Upper Township,310 Chestnut Neck Rd,NA,Port Republic,NJ,08241,NA,NA,NA,"310 Chestnut Neck Rd, Port Republic, NJ, 08241",39.5319525,-74.4930312
Stockton SJCHC Historical Societies & Museums,Historical Society,Egg Harbor City Historical Society,533 London Ave,NA,Egg Harbor City,NJ,08215-1565,609 965 9073,http://www.ehchs.org/index.php,NA,"533 London Ave, Egg Harbor City, NJ, 08215-1565",39.5359879,-74.6432442
Stockton SJCHC Historical Societies & Museums,Museum,The African American Heritage Museum of Southern New Jersey,661 Jackson Road,NA,Newtonville,NJ,08346,NA,http://www.aahmsnj.org/,NA,"661 Jackson Road, Newtonville, NJ, 8346",39.562166,-74.869848
Curated using Google,Museum,African American Heritage Museum,661 Jackson Road,NA,Newtonville,NJ,08346,NA,NA,NA,"661 Jackson Road, Newtonville, NJ, 08346",39.562166,-74.869848
Curated using Google,Organization,Long Beach Island Historical Association,129 Engleside Ave,NA,Beach Haven,NJ,08008,NA,NA,NA,"129 Engleside Ave, Beach Haven, NJ, 08008",39.5624423,-74.2385592
League of Historical Societies of NJ,Organization,Long Beach Island Historical Association,129 Engleside Avenue,P.O. Box 1222,Beach Haven,NJ,08008,609-492-0700,lbihistoricalmuseum.org,NA,"129 Engleside Avenue, Beach Haven, NJ, 8008",39.5624423,-74.2385592
Curated using Google,Bookstore,LBI Book Swap,301-401 9th St,NA,Beach Haven,NJ,08008,NA,NA,NA,"301-401 9th St, Beach Haven, NJ, 08008",39.5687355,-74.2338635
Curated using Google,Historical Society,Salem County Historical Society,83 Market St,NA,Salem,NJ,08079,NA,NA,NA,"83 Market St, Salem, NJ, 08079",39.5732874,-75.4665676
Stockton SJCHC Historical Societies & Museums,Historical Society,Jewish Historical Society of Rural Southern New Jersey,83 Market Street,NA,Salem,NJ,08079,856-935-5004,http://www.salemcountyhistoricalsociety.com/,NA,"83 Market Street, Salem, NJ, 8079",39.5732874,-75.4665676
League of Historical Societies of NJ,Historical Society,Salem County Historical Society,83 Market Street,NA,Salem,NJ,08079,856-935-5004,salemcountyhistoricalsociety.com,NA,"83 Market Street, Salem, NJ, 8079",39.5732874,-75.4665676
Curated using Google,Historical Society,"Bass River Township Historical Society
","3 N. Maple Avenue
",NA,"New Gretna
",NJ,08224,NA,NA,NA,"3 N. Maple Avenue
, New Gretna
, NJ, 08224",39.5929347,-74.451537
Curated using Google,Museum,Tuckerton Seaport & Baymen's Museum,120 W Main St,NA,Tuckerton,NJ,08087,NA,NA,NA,"120 W Main St, Tuckerton, NJ, 08087",39.6030616,-74.3415483
League of Historical Societies of NJ,Museum,Barnegat Bay Decoy & Baymens Museum,120 West Main Street,PO Box 52,Tuckerton,NJ,08087,609-296-8868,tuckertonseaport.org,NA,"120 West Main Street, Tuckerton, NJ, 8087",39.6030616,-74.3415483
Curated using Google,Gift shop,Nick's Jewelry & Nautical Gift Shop,112 Giffordtown Ln,NA,Tuckerton,NJ,08087,NA,NA,NA,"112 Giffordtown Ln, Tuckerton, NJ, 08087",39.6051273,-74.3557374
Curated using Google,Organization,Friends of the Bass River State Forest,762 Stage Rd,NA,Tuckerton,NJ,08087,NA,NA,NA,"762 Stage Rd, Tuckerton, NJ, 08087",39.6210798,-74.4225973
Stockton SJCHC Historical Societies & Museums,Museum,Noyes Museum of Art,30 Front Street,NA,Hammonton,NJ,08037,NA,http://www.noyesmuseum.org/,NA,"30 Front Street, Hammonton, NJ, 8037",39.6343644,-74.8042327
League of Historical Societies of NJ,Historical Society,Historical Society of Hammonton,333 Vine Street,P.O. Box 876,Hammonton,NJ,08037,609-270-7652,www.historicalsocietyofhammonton.org,NA,"333 Vine Street, Hammonton, NJ, 8037",39.6370501,-74.8006652
Curated using Google,Historical Society,Hammonton Historical Society,306 Bellevue Ave,NA,Hammonton,NJ,08037,NA,NA,NA,"306 Bellevue Ave, Hammonton, NJ, 08037",39.6373112,-74.8017764
Curated using Google,Historical Society,The Batsto Citizens Committee,31 Batsto Rd,NA,Hammonton,NJ,08037,NA,NA,NA,"31 Batsto Rd, Hammonton, NJ, 08037",39.643388,-74.6481908
Curated using Google,Historical Society,Joseph Wharton's Batsto Mansion,31 Batsto Rd,NA,Hammonton,NJ,08037,NA,NA,NA,"31 Batsto Rd, Hammonton, NJ, 08037",39.643388,-74.6481908
Curated using Google,Historical Society,Pine Barrens Discovery Center,1004 Rt 542,NA,Hammonton,NJ,08037,NA,NA,NA,"1004 Rt 542, Hammonton, NJ, 08037",39.656979,-74.632072
Curated using Google,Historical Society,Blue Anchor Historical Society,114 E Central Ave,NA,Blue Anchor,NJ,08037,NA,NA,NA,"114 E Central Ave, Blue Anchor, NJ, 08037",39.68901,-74.878232
Curated using Google,Historical Society,Stafford Township Historical Society,235 N Main St,NA,Manahawkin,NJ,08050,NA,NA,NA,"235 N Main St, Manahawkin, NJ, 08050",39.6941647,-74.2604916
League of Historical Societies of NJ,Cultural Site,Batsto Village,31 Batsto Road,NA,Hammonton,NJ,08037,609-561-0024,batstovillage.org,http://www.state.nj.us/dep/parksandforests/parks/docs/batsto_teaching_resource.pdf,"31 Batsto Road, Hammonton, NJ, 8037",39.6977067,-74.6932584
Curated using Google,Bookstore,The Comic Book Store,30 North Main Street,NA,Glassboro,NJ,08028,NA,NA,NA,"30 North Main Street, Glassboro, NJ, 08028",39.7034448,-75.1115513
Curated using Google,Museum,Heritage Glass Museum,25 E High St,NA,Glassboro,NJ,08028,NA,NA,NA,"25 E High St, Glassboro, NJ, 08028",39.7043838,-75.1176022
Curated using Google,Organization,Mullica Hill Merchants Association,47 S Main St,NA,Mullica Hill,NJ,08062,NA,NA,NA,"47 S Main St, Mullica Hill, NJ, 08062",39.7306837,-75.224025
Curated using Google,Bookstore,The Mullica Hill Book Store,45 South Main Street,NA,Mullica Hill,NJ,08062,NA,NA,NA,"45 South Main Street, Mullica Hill, NJ, 08062",39.7307253,-75.224029
Curated using Google,Historical Society,Pitman Historical Society,17 S Broadway,NA,Pitman,NJ,08071,NA,NA,NA,"17 S Broadway, Pitman, NJ, 08071",39.732833,-75.1310174
Stockton SJCHC Historical Societies & Museums,Historical Society,Barnegat Historical Society,575 East Bay Avenue,NA,Barnegat,NJ,NA,(732) 573-5537,NA,NA,"575 East Bay Avenue, Barnegat, NJ",39.7490442,-74.2112591
League of Historical Societies of NJ,Historical Society,Barnegat Light Historical Society,501 Central Avenue,P.O. Box 56,Barnegat Light,NJ,08006,609-494-8578,https://www.barnegatlighthistoricalsociety.org/,NA,"501 Central Avenue, Barnegat Light, NJ, 8006",39.7600038,-74.1053004
Curated using Google,Lighthouse,Barnegat Lighthouse State Park,208 Broadway,NA,Barnegat Light,NJ,08006,NA,NA,NA,"208 Broadway, Barnegat Light, NJ, 08006",39.7628778,-74.1080505
Curated using Google,"Lighthouse, Organization",Friends of Barnegat Lighthouse State Park,208 Broadway,NA,Barnegat Light,NJ,08006,NA,NA,NA,"208 Broadway, Barnegat Light, NJ, 08006",39.7628778,-74.1080505
League of Historical Societies of NJ,"Lighthouse, Association",New Jersey Lighthouse Society,NA,P.O. Box 194,Pedricktown,NJ,08067,NA,http://www.njlhs.org/,NA,"NA, Pedricktown, NJ, 8067",39.7673357,-75.4146374
Curated using Google,Historical Society,Indian Mills Historic Society,105 Willow Grove Road,NA,Shamong,NJ,08088,NA,NA,NA,"105 Willow Grove Road, Shamong, NJ, 08088",39.7915471,-74.7567688
Curated using Google,Bookstore,The Book Asylum,28 North Black Horse Pike,NA,Blackwood,NJ,08012,NA,NA,NA,"28 North Black Horse Pike, Blackwood, NJ, 08012",39.801541,-75.063784
Curated using Google,Historical Society,East Greenwich Township Historical Society,159 Democrat Rd,NA,Mickleton,NJ,08056,NA,NA,NA,"159 Democrat Rd, Mickleton, NJ, 08056",39.804144,-75.2609968
Curated using Google,Wildlife,Cedar Run Wildlife Refuge,4 Sawmill Rd,NA,Medford,NJ,08055,NA,NA,NA,"4 Sawmill Rd, Medford, NJ, 08055",39.821225,-74.8474738
Curated using Google,Historical Society,Medford Historical Society,11 James St,NA,Medford,NJ,08055,NA,NA,NA,"11 James St, Medford, NJ, 08055",39.8255011,-74.8405789
League of Historical Societies of NJ,Historical Society,Lacey Historical Society,126 S. Main St.,P.O. Box 412,Forked River,NJ,08731,609-693-0467,laceytownship.org,NA,"126 S. Main St., Forked River, NJ, 8731",39.8381309,-74.1933723
League of Historical Societies of NJ,Historical Society,Gloucester County Historical Society,17 Hunter Street,NA,Woodbury,NJ,08096,856-845-4771,gchsnj.org,NA,"17 Hunter Street, Woodbury, NJ, 8096",39.8395475,-75.1516367
Curated using Google,Organization,Woodland Township Historical Society,5249 Route 72,NA,Woodland,NJ,08088,NA,NA,NA,"5249 Route 72, Woodland, NJ, 08088",39.847659,-74.55576
League of Historical Societies of NJ,Historical Society,Society of Mayflower Descendants in the State of New Jersey,184 Kihade Trail,NA,Medford Lakes,NJ,08055,609-605-1399,njmayflower.org,NA,"184 Kihade Trail, Medford Lakes, NJ, 8055",39.8522204,-74.8142406
League of Historical Societies of NJ,Cultural Site,Old Baldy Civil War Round Table,211 Bergen Avenue,NA,Voorhees,NJ,08043,NA,oldbaldycwrt.org,NA,"211 Bergen Avenue, Voorhees, NJ, 8043",39.8559972,-74.9935437
Stockton SJCHC Historical Societies & Museums,Museum,Benson History Museum,427 E Pine St,NA,Lawnside,NJ,08045,NA,http://www.thebensonhistorymuseum.org/,NA,"427 E Pine St, Lawnside, NJ, 08045",39.8604564,-75.0182029
Curated using Google,Historical Society,Tabernacle Historical Society,31 Hawkin Rd,NA,Tabernacle,NJ,08088,NA,NA,NA,"31 Hawkin Rd, Tabernacle, NJ, 08088",39.8642833,-74.7408987
Curated using Google,Historical Society,Lawnside Historical Society,112 E Charleston Ave,NA,Lawnside,NJ,08045,NA,NA,NA,"112 E Charleston Ave, Lawnside, NJ, 08045",39.864599,-75.0296084
Curated using Google,Organization,Mansion on Main Street,3000 Main St,NA,Voorhees Township,NJ,08043,NA,NA,NA,"3000 Main St, Voorhees Township, NJ, 08043",39.8658313,-74.9448233
Stockton SJCHC Historical Societies & Museums,Cultural Site,Peter Mott House,26 Kings Court,NA,Lawnside,NJ,08045,( 856) 546-8850,www.petermotthouse.org,NA,"26 Kings Court, Lawnside, NJ, 8045",39.8674427,-75.0365275
Curated using Google,Historical Society,Red Bank Battlefield Park,100 Hessian Ave,NA,National Park,NJ,08063,NA,NA,NA,"100 Hessian Ave, National Park, NJ, 08063",39.868976,-75.189551
Curated using Google,"Presevation, Organization",South Jersey Cultural Alliance,200 Tuckerton Rd,NA,Medford,NJ,08055,NA,NA,NA,"200 Tuckerton Rd, Medford, NJ, 08055",39.8689952,-74.8479065
Curated using Google,Historical Society,Jewish Historical Society of Rural Southern New Jersey,1201 Springdale Rd,NA,Cherry Hill,NJ,08003,NA,NA,NA,"1201 Springdale Rd, Cherry Hill, NJ, 08003",39.88113,-74.970102
Curated using Google,Historical Society,Evasham Township Historical Society,856 Cropwell Rd,NA,Cherry Hill,NJ,08003,NA,NA,NA,"856 Cropwell Rd, Cherry Hill, NJ, 08003",39.8888465,-74.9386776
League of Historical Societies of NJ,Historical Society,Audubon Historical Society,234 Oak Street,NA,Audubon,NJ,08106,856-547-5324,audubonnj.com,NA,"234 Oak Street, Audubon, NJ, 8106",39.8892975,-75.0707775
League of Historical Societies of NJ,Organization,American Revolutionary Round Table South Jersey,12 Locust Grove,NA,Cherry Hill,NJ,08003,856-996-5246,NA,arrtosj@gmail.com,"12 Locust Grove, Cherry Hill, NJ, 8003",39.8920579,-74.9548892
Curated using Google,Historical Society,West Jersey Chapter of the National Railway Historical Society,744 E Pine St,NA,Audubon,NJ,08106,NA,NA,NA,"744 E Pine St, Audubon, NJ, 08106",39.8926229,-75.0637044
Stockton SJCHC Historical Societies & Museums,Historical Society,Evasham Township Historical Society,10 Madison Ct,NA,Marlton,NJ,08053,NA,https://eveshamhistoricalsociety.org,NA,"10 Madison Ct, Marlton, NJ, 8053",39.8976157,-74.9161533
League of Historical Societies of NJ,"Presevation, Organization",Friends of the Indian King Tavern,30 Tanner Street,NA,Haddonfield,NJ,08033,856-429-9154,indiankingfriends.org,NA,"30 Tanner Street, Haddonfield, NJ, 8033",39.8983826,-75.034664
Stockton SJCHC Historical Cultural Sites,Cultural Site,Indian King Tavern,233 Kings Highway East,NA,Haddonfield,NJ,08033,NA,http://www.levins.com/tavern.html,NA,"233 Kings Highway East, Haddonfield, NJ, 8033",39.8988997,-75.030385
Curated using Google,Bookstore,Inkwood Books,31 Kings Highway East,NA,Haddonfield,NJ,08033,NA,NA,NA,"31 Kings Highway East, Haddonfield, NJ, 08033",39.8995855,-75.0289023
League of Historical Societies of NJ,Historical Society,Historical Society of Haddonfield,343 Kings Highway East,NA,Haddonfield,NJ,08033,856-429-7375,haddonfieldhistory.org,NA,"343 Kings Highway East, Haddonfield, NJ, 8033",39.900569,-75.027229
League of Historical Societies of NJ,Historical Society,Medford Historical Society,NA,P.O. Box 362,Medford,NJ,08055,609-654-5382,MedfordHistory.org,NA,"NA, Medford, NJ, 8055",39.9009472,-74.8234961
League of Historical Societies of NJ,Cultural Site,Barclay Farmstead,209 Barclay Lane,P.O. Box 3014,Cherry Hill,NJ,08034,856-795-6225,https://www.cherryhill-nj.com/barclay,friendsofbarclayfarmstead@gmail.com,"209 Barclay Lane, Cherry Hill, NJ, 8034",39.9065613,-74.9988174
Curated using Google,Historical Society,Medford Historical Society,275 Church Road,NA,Medford,NJ,08055,NA,NA,NA,"275 Church Road, Medford, NJ, 08055",39.9150496,-74.821202
Curated using Google,Organization,Beachwood Historical Alliance,1600 Pinewald Rd,NA,Beachwood,NJ,08722,NA,NA,NA,"1600 Pinewald Rd, Beachwood, NJ, 08722",39.9181888,-74.2065726
Curated using Google,Historical Society,Johnson's Corner Farm,133 Church Rd,NA,Medford,NJ,08055,NA,NA,NA,"133 Church Rd, Medford, NJ, 08055",39.9196412,-74.8514351
League of Historical Societies of NJ,Museum,Lake Hopatcong Historical Museum,State Park,P.O. Box 668,Landing,NJ,07850,973-398-2616,lakehopatconghistory.com,NA,"State Park, Landing, NJ, 7850",39.9224004,-75.0403361
Curated using Google,Historical Society,Mount Laurel Historical Society,440 Mt Laurel Rd,NA,Mt Laurel,NJ,08054,NA,NA,NA,"440 Mt Laurel Rd, Mt Laurel, NJ, 08054",39.9252329,-74.8829399
League of Historical Societies of NJ,Cultural Site,Farmstead Arts Center,450 King George Road,NA,NA,NJ,NA,908-636-7576,NA,ann7920@gmail.com,"450 King George Road, NJ",39.9267259,-74.9877497
League of Historical Societies of NJ,Historical Society,Camden County Historical Society,1900 Park Boulevard,NA,Camden,NJ,08103,856-964-3333,cchsnj.org,NA,"1900 Park Boulevard, Camden, NJ, 8103",39.9335829,-75.0968587
Curated using Google,Historical Society,Camden County Historical Society,1900 Park Blvd,NA,Camden,NJ,08103,NA,NA,NA,"1900 Park Blvd, Camden, NJ, 08103",39.9344064,-75.0979878
League of Historical Societies of NJ,Organization,Island Heights Cultural & Heritage Association,NA,P.O. Box 670,Island Heights,NJ,08732,732-929-2646,NA,ihchanj@gmail.com,"NA, Island Heights, NJ, 8732",39.9420626,-74.1498616
Curated using Google,Museum,Old City Cemetery,401 Federal St,NA,Camden,NJ,08103,NA,NA,NA,"401 Federal St, Camden, NJ, 08103",39.944262,-75.122703
Curated using Google,"Presevation, Organization",Friends of the Pine Barrens,17 Pemberton Road,NA,Southampton,NJ,08088,NA,NA,NA,"17 Pemberton Road, Southampton, NJ, 08088",39.9449841,-74.6894915
League of Historical Societies of NJ,Historical Society,Merchantville Historical Society,1 West Maple Avenue,NA,Merchantville,NJ,08109,856-665-6271,facebook.com/Merchantville-Historical-Society,MrsMerch@aol.com,"1 West Maple Avenue, Merchantville, NJ, 8109",39.950492,-75.04886
Curated using Google,Museum,Toms River Seaport Society & Maritime Museum,78 E Water St,NA,Toms River,NJ,08753,NA,NA,NA,"78 E Water St, Toms River, NJ, 08753",39.950838,-74.194577
Stockton SJCHC Historical Societies & Museums,Museum,Barnegat Bay Maritime Museum,78 East Water Street,NA,Toms River,NJ,08753,(732)-349-9209,http://www.tomsriverseaport.org/,NA,"78 East Water Street, Toms River, NJ, 08753",39.950838,-74.194577
Curated using Google,Education,Paws Farm Nature Center,1105 Hainesport Mt Laurel Rd,NA,Mount Laurel,NJ,08054,NA,NA,NA,"1105 Hainesport Mt Laurel Rd, Mount Laurel, NJ, 08054",39.9513894,-74.8712983
Curated using Google,Museum,Ocean County Historical Society,26 Hadley Ave,NA,Toms River,NJ,08753,NA,NA,NA,"26 Hadley Ave, Toms River, NJ, 08753",39.952911,-74.1910927
League of Historical Societies of NJ,Historical Society,Ocean County Historical Society,26 Hadley Avenue,NA,Toms River,NJ,08753,732-341-1880,oceancountyhistory.org,http://www.oceancountyhistory.org/,"26 Hadley Avenue, Toms River, NJ, 8753",39.952911,-74.1910927
Curated using Google,Bookstore,The Book Asylum (duplicate),17 North Centre Street,NA,Merchantville,NJ,08109,NA,NA,NA,"17 North Centre Street, Merchantville, NJ, 08109",39.9536713,-75.0493923
League of Historical Societies of NJ,Museum,Alice Paul Institute,128 Hooton Road,P.O. Box 1376,Mount Laurel,NJ,08054,856-231-1885,alicepaul.org,info@alicepaul.org,"128 Hooton Road, Mount Laurel, NJ, 8054",39.9546053,-74.9356143
League of Historical Societies of NJ,Historical Society,Historical Society of Moorestown,12 High Street,P.O. Box 477,Moorestown,NJ,08057,856-235-0353,moorestownhistory.org,NA,"12 High Street, Moorestown, NJ, 8057",39.963459,-74.9470997
League of Historical Societies of NJ,Historical Society,Lumberton Historical Society,609 Main Street,P.O. Box 22,Lumberton,NJ,08048,609-267-6647,lumbertonnjhistoricalsociety.com,NA,"609 Main Street, Lumberton, NJ, 8048",39.9656487,-74.8055132
Curated using Google,Bookstore,Book Haven,2202 Fairmount Ave,NA,Philadelphia,PA,19130,NA,NA,NA,"2202 Fairmount Ave, Philadelphia, PA, 19130",39.9671046,-75.1739876
League of Historical Societies of NJ,"Presevation, Organization",Pinelands Preservation Alliance,17 Pemberton Road,NA,Southampton,NJ,08088,609-859-8860,pinelandsalliance.org,NA,"17 Pemberton Road, Southampton, NJ, 8088",39.9696471,-74.7312089
Curated using Google,Historical Society,Main Street Mount Holly,41 White St,NA,Mount Holly,NJ,08060,NA,NA,NA,"41 White St, Mount Holly, NJ, 08060",39.991412,-74.787928
League of Historical Societies of NJ,Cultural Site,Revolutionary War Alliance of Burlington County,NA,P.O. Box 507,Mount Holly,NJ,08060,609-864-6138,NA,revwaralliance@yahoo.com,"NA, Mount Holly, NJ, 8060",39.9928898,-74.7876624
Curated using Google,Museum,Burlington County Prison Museum,128 High St,NA,Mount Holly,NJ,08060,NA,NA,NA,"128 High St, Mount Holly, NJ, 08060",39.9965894,-74.7892595
Stockton SJCHC Historical Societies & Museums,Museum,Burlington County Prison Museum,128 High Street,NA,Mt. Holly,NJ,08060,NA,http://www.prisonmuseum.net/,NA,"128 High Street, Mt. Holly, NJ, 08060",39.9965894,-74.7892595
Curated using Google,Organization,"John Woolman Memorial Association
","99 Branch Street
",NA,Mount Holly,NJ,08060,NA,NA,NA,"99 Branch Street
, Mount Holly, NJ, 08060",39.9990361,-74.7770993
Curated using Google,Museum,Burlington County Lyceum of History and Natural Sciences,307 High St,NA,Mount Holly,NJ,08060,NA,NA,NA,"307 High St, Mount Holly, NJ, 08060",39.9993743,-74.7905126
League of Historical Societies of NJ,"Presevation, Organization",Friends of White Hill Mansion,1290 Wynwood Drive,NA,Cinnaminson,NJ,08077,856-786-3492,whitehillmansion.com,NA,"1290 Wynwood Drive, Cinnaminson, NJ, 8077",40.0049815,-74.9915417
Curated using Google,Education,Rancocas Nature Center,794 Rancocas Rd,NA,Westampton,NJ,08060,NA,NA,NA,"794 Rancocas Rd, Westampton, NJ, 08060",40.0058324,-74.8258314
Stockton SJCHC Historical Societies & Museums,Historical Society,West Jersey Chapter of the National Railway Historical Society,NA,P.O. Box 647,Palmyra,NJ,08065,NA,http://www.westjersey-nrhs.org/,NA,"NA, Palmyra, NJ, 08065",40.0070565,-75.0282271
Curated using Google,Historical Society,Timbuctoo Historical Society,Rancocas Road,NA,Westampton,NJ,08060,NA,NA,NA,"Rancocas Road, Westampton, NJ, 08060",40.0092183,-74.851158
League of Historical Societies of NJ,Historical Society,Westampton Historical Society,NA,P.O. Box 132,Rancocas,NJ,08073,856-905-3040,https://www.westamptonnj.gov/historic-preservation-commission,NA,"NA, Rancocas, NJ, 8073",40.0106674,-74.866832
Curated using Google,Historical Society,The Historical Society of Riverton,305 Bank Ave,NA,Riverton,NJ,08077,NA,NA,NA,"305 Bank Ave, Riverton, NJ, 08077",40.0135568,-75.0202612
League of Historical Societies of NJ,Historical Society,Navy Lakehurst Historical Society,1760 Ridgeway Road,NA,Lakehurst,NJ,08733,570-856-2100,www.nlhs.com,NA,"1760 Ridgeway Road, Lakehurst, NJ, 8733",40.0147284,-74.311567
Curated using Google,Education,Insectropolis,1761 Lakewood Rd,NA,Toms River,NJ,08755,NA,NA,NA,"1761 Lakewood Rd, Toms River, NJ, 08755",40.0147997,-74.2179546
Curated using Google,Historical Society,"Delran Historic Society
","900 S. Chester Avenue
",NA,Delran,NJ,08075,NA,NA,NA,"900 S. Chester Avenue
, Delran, NJ, 08075",40.0170365,-74.95617
League of Historical Societies of NJ,Historical Society,Lakehurst Historical Society,27 Ascot Lane,NA,NA,NJ,NA,732-408-5612,NA,cfhcfhrev@aol.com,"27 Ascot Lane, NJ",40.0252595,-74.3024907
League of Historical Societies of NJ,Museum,Armed Forces Heritage Museum,NA,P.O. Box 324,Wrightstown,NJ,08562,908-625-2973,afhmus.org,NA,"NA, Wrightstown, NJ, 8562",40.0362241,-74.6179344
League of Historical Societies of NJ,Cultural Site,NJ Colonial Dames,180 Burrs Road,NA,Westampton,NJ,08060,NA,https://nscdanj.org/,NA,"180 Burrs Road, Westampton, NJ, 8060",40.036647,-74.798684
Curated using Google,Historical Society,Springfield Township Historical Society,2159 Jacksonville-Jobstown Road,NA,Jobstown,NJ,08041,NA,NA,NA,"2159 Jacksonville-Jobstown Road, Jobstown, NJ, 08041",40.0370259,-74.699814
Curated using Google,Bookstore,Main Point Books,116 North Wayne Avenue,NA,Wayne,PA,19087,NA,NA,NA,"116 North Wayne Avenue, Wayne, PA, 19087",40.0447295,-75.3880333
Curated using Google,Historical Society,NJ Colonial Dames,228 Burlington Ave,NA,Delanco,NJ,08075,NA,NA,NA,"228 Burlington Ave, Delanco, NJ, 08075",40.0455374,-74.9583288
Curated using Google,Bookstore,Caprichos Books,525 Carpenter Lane,NA,Philadelphia,PA,19119,NA,NA,NA,"525 Carpenter Lane, Philadelphia, PA, 19119",40.0474598,-75.1948985
Curated using Google,"Presevation, Organization",The Delanco Historic Preservation Board,770 Coopertown Rd,NA,Delanco,NJ,08075,NA,NA,NA,"770 Coopertown Rd, Delanco, NJ, 08075",40.048426,-74.9405734
Curated using Google,Historical Society,"Delanco Historic Preservation Advisory Board
","303 Union Avenue
",NA,Delanco,NJ,08075,NA,NA,NA,"303 Union Avenue
, Delanco, NJ, 08075",40.0497773,-74.9572821
Curated using Google,Organization,Mount Holly Cemetery Association,2002 US 541,NA,Burlington,NJ,08016,NA,NA,NA,"2002 US 541, Burlington, NJ, 08016",40.0516845,-74.8420598
League of Historical Societies of NJ,"Presevation, Organization",Friends of West Hill Mansion,1114 Oxmead Road,NA,Burlington Township,NJ,08016,856-768-0312,westhillnj.org,NA,"1114 Oxmead Road, Burlington Township, NJ, 8016",40.0536722,-74.8216311
Curated using Google,Historical Society,Riverfront Historical Society,433 Cooper Street,NA,Beverly,NJ,08010,NA,NA,NA,"433 Cooper Street, Beverly, NJ, 08010",40.0642245,-74.918789
Curated using Google,Historical Society,Shipman Mansion/Red Dragon Canoe Club,221 Edgewater Avenue,NA,Edgewater Park,NJ,08010,NA,NA,NA,"221 Edgewater Avenue, Edgewater Park, NJ, 08010",40.070861,-74.898076
Curated using Google,Historical Society,Burlington County Historical Society,457 High St,NA,Burlington,NJ,08016,NA,NA,NA,"457 High St, Burlington, NJ, 08016",40.0762203,-74.8573836
Curated using Google,Historical Society,Point Pleasant Historical Society,416 New Jersey Ave,NA,Point Pleasant Beach,NJ,08742,NA,NA,NA,"416 New Jersey Ave, Point Pleasant Beach, NJ, 08742",40.0873999,-74.0456735
Curated using Google,Bookstore,The Little Point Bookshop,618 Arnold Ave,NA,Point Pleasant Beach,NJ,08742,NA,NA,NA,"618 Arnold Ave, Point Pleasant Beach, NJ, 08742",40.0916387,-74.0501005
League of Historical Societies of NJ,Historical Society,Point Pleasant Historical Society,NA,P.O. Box 1273,Point Pleasant Beach,NJ,08742,732-892-3091; 732-892-6414,pointpleasanthistory.com,NA,"NA, Point Pleasant Beach, NJ, 8742",40.0919203,-74.0482024
League of Historical Societies of NJ,Historical Society,Brick Township Historical Society,521 Herbertsville Rd,P.O. Box 160,Brick,NJ,08723,732-785-2500,https://bricktownshiphistoricalsociety.com/,NA,"521 Herbertsville Rd, Brick, NJ, 8723",40.1059197,-74.1065096
League of Historical Societies of NJ,Historical Society,Union Landing Historical Society,601 Union Lane,P.O. Box 473,Brielle,NJ,08730,609-658-8234,NA,curtis.porcello@sanofi.com jgham111@gmail.com,"601 Union Lane, Brielle, NJ, 8730",40.111175,-74.05833
Curated using Google,Bookstore,BookTowne,171 Main St,NA,Manasquan,NJ,08736,NA,NA,NA,"171 Main St, Manasquan, NJ, 08736",40.112572,-74.03327
Curated using Google,Historical Society,Roebling Historical Society,NA,P.O. Box 162,Roebling,NJ,08554,NA,NA,NA,"NA, Roebling, NJ, 08554",40.1159436,-74.7862734
Stockton SJCHC Historical Societies & Museums,Historical Society,Florence Historical Society,25 W. 3rd Street,NA,Florence,NJ,NA,NA,NA,NA,"25 W. 3rd Street, Florence, NJ",40.1206307,-74.805595
Curated using Google,Historical Society,Florence Historical Society,208 Broad St,NA,Florence,NJ,08518,NA,NA,NA,"208 Broad St, Florence, NJ, 08518",40.1207106,-74.804839
League of Historical Societies of NJ,Historical Society,Squan Village Historical Society,105 South Street,NA,Manasquan,NJ,08736,732-223-6770,squanvillagehistoricalsociety.org,NA,"105 South Street, Manasquan, NJ, 8736",40.1213137,-74.0550262
Curated using Google,Historical Society,Mansfield Township Historical Society,2004 US 206,NA,Bordentown,NJ,08505,NA,NA,NA,"2004 US 206, Bordentown, NJ, 08505",40.1217369,-74.7076449
League of Historical Societies of NJ,Historical Society,Lawnside Historical Society,26 Kings Court,P.O. Box 608,NA,NJ,NA,856-546-8850,NA,lhs@petermotthouse.org,"26 Kings Court, NJ",40.1218228,-74.248861
League of Historical Societies of NJ,"Presevation, Organization",Friends of the Old Yellow Meeting House,NA,P.O. Box 23,Cream Ridge,NJ,08514,703-770-7399,oymh.org,NA,"NA, Cream Ridge, NJ, 8514",40.1351122,-74.5240423
League of Historical Societies of NJ,Historical Society,Bordentown Historical Society,302 Farnsworth Ave,P.O. Box 182,Bordentown,NJ,08505,609-298-1740,bordentownhistory.org,NA,"302 Farnsworth Ave, Bordentown, NJ, 8505",40.1460408,-74.7118658
League of Historical Societies of NJ,Historical Society,Spring Lake Historical Society,423 Warren Avenue,P.O. Box 703,Spring Lake,NJ,07762,732-449-0772,springlakehistoricalsociety.org,NA,"423 Warren Avenue, Spring Lake, NJ, 7762",40.1511143,-74.0333477
Curated using Google,Historical Society,"Chesterfield Historical Society
","2 Front Street
",NA,Crosswicks,NJ,NA,NA,NA,NA,"2 Front Street
, Crosswicks, NJ",40.151601,-74.648955
Curated using Google,Bookstore,Thunder Road Books,1108 3rd Ave,NA,Spring Lake,NJ,07762,NA,NA,NA,"1108 3rd Ave, Spring Lake, NJ, 07762",40.1519351,-74.0283473
League of Historical Societies of NJ,Historical Society,Chesterfield Township Historical Society,530 Ward Avenue,P.O. Box 222,Crosswicks,NJ,08515,609-298-0567,chesterfieldtwphistoricalsoc.org,chesterfieldtwphistoricalsoc@gmail.com,"530 Ward Avenue, Crosswicks, NJ, 8515",40.1542733,-74.6527582
League of Historical Societies of NJ,Cultural Site,Washington Crossing Rev. War Round Table,5 High Street,NA,Allentown,NJ,08501,609-259-9127,swanhistoricalfoundation.org,NA,"5 High Street, Allentown, NJ, 8501",40.1750188,-74.5885308
League of Historical Societies of NJ,Historical Society,Beavertown Historical Society,137 Main Street,NA,Belmar,NJ,07719,973-694-0640,belmarhistoricalsociety.org,Belmar Historical Society,"137 Main Street, Belmar, NJ, 7719",40.1808754,-74.0250606
League of Historical Societies of NJ,Historical Society,Hamilton Township Historical Society,NA,P.O. Box 11271,Yardville,NJ,08620,609-585-1686,hamiltonhistorical.org,NA,"NA, Yardville, NJ, 8620",40.1812212,-74.6643248
League of Historical Societies of NJ,Museum,Information Age Science & History Museums,2201 Marconi Road,NA,Wall Township,NJ,07719,732-280-3000,www.infoage.org,NA,"2201 Marconi Road, Wall Township, NJ, 7719",40.185424,-74.058827
League of Historical Societies of NJ,Historical Society,Farmingdale Historical Society,NA,P.O. Box 165,Farmingdale,NJ,07727,732-259-0954,facebook.com/farmingdalehistoricalsocietynj,fastcharger73@hotmail.com,"NA, Farmingdale, NJ, 7727",40.1965018,-74.1684757
League of Historical Societies of NJ,Historical Society,Bradley Beach Historical Society,719 Main Street,NA,Bradley Beach,NJ,07720,201-993-9480,www.bbhistory.org,NA,"719 Main Street, Bradley Beach, NJ, 7720",40.2043364,-74.0174007
League of Historical Societies of NJ,Cultural Site,Mercer County Cultural & Heritage Commission,640 South Broad Street,4th Floor,Trenton,NJ,08650,609-278-2712,mercercounty.org,NA,"640 South Broad Street, Trenton, NJ, 8650",40.2094163,-74.7544678
League of Historical Societies of NJ,Historical Society,Historical Society of Ocean Grove,50 Pitman Avenue,P.O. Box 446,Ocean Grove,NJ,07756,732-774-1869,historicalsocietyofoceangrove.org,NA,"50 Pitman Avenue, Ocean Grove, NJ, 7756",40.2128293,-74.0067802
League of Historical Societies of NJ,Historical Society,Mount Tabor Historical Society,NA,P.O. Box 271,Mount Tabor,NJ,07878,973-975-0001,mounttabornj.org,NA,"NA, Mount Tabor, NJ, 7878",40.2136642,-74.009746
League of Historical Societies of NJ,Organization,Trent House Association,15 Market Street,NA,Trenton,NJ,08611,609-989-0087; 609-989-3017,williamtrenthouse.org,NA,"15 Market Street, Trenton, NJ, 8611",40.2137145,-74.7650668
Curated using Google,Bookstore,Classic Book Shop,4 West Lafayette Street,NA,Trenton,NJ,08608,NA,NA,NA,"4 West Lafayette Street, Trenton, NJ, 08608",40.2186757,-74.7664312
Curated using Google,Museum,Old Barracks Museum,101 Barrack St,NA,Trenton,NJ,08608,NA,NA,NA,"101 Barrack St, Trenton, NJ, 08608",40.2198577,-74.7687466
League of Historical Societies of NJ,Museum,Old Barracks Museum,101 Barrack Street,NA,Trenton,NJ,08608,609-396-1776,barracks.org,NA,"101 Barrack Street, Trenton, NJ, 8608",40.2198577,-74.7687466
League of Historical Societies of NJ,"Museum, Organization",Trenton Museum Society,NA,P.O. Box 1034,Trenton,NJ,08606,609-989-1191,ellarslie.org,NA,"NA, Trenton, NJ, 8606",40.2208567,-74.7291776
League of Historical Societies of NJ,"Historical Society, Genealogy",Genealogical Society of New Jersey,NA,P.O. Box 1476,Trenton,NJ,08607,201-306-0598,gsnj.org,NA,"NA, Trenton, NJ, 8607",40.2208567,-74.7291776
League of Historical Societies of NJ,Cultural Site,New Jersey Historic Trust,NA,P.O. Box 457,Trenton,NJ,08625,609-984-0473,njht.org,NA,"NA, Trenton, NJ, 8625",40.2208567,-74.7291776
League of Historical Societies of NJ,Organization,Crossroads of the American Revolution Association,124 West State St.,NA,Trenton,NJ,08608,609-633-2060,revolutionarynj.org,NA,"124 West State St., Trenton, NJ, 8608",40.2209338,-74.7691611
League of Historical Societies of NJ,Historical Society,Archaeological Society of New Jersey,205 West State Street,P.O. Box 530,Trenton,NJ,08625,732-547-8534,asnj.org,asofnj@gmail.com,"205 West State Street, Trenton, NJ, 8625",40.2210696,-74.7733052
League of Historical Societies of NJ,Museum,New Jersey State Museum,205 West State Street,P.O. Box 530,Trenton,NJ,08625,609-826-3935,state.nj.us/state/museum/,Nicholas.Ciotola@sos.state.nj.us,"205 West State Street, Trenton, NJ, 8625",40.2210696,-74.7733052
League of Historical Societies of NJ,Library,Trentoniana Trenton Free Public Library,120 Academy Street,NA,Trenton,NJ,08608,NA,NA,trentoniana@trentonlib.org,"120 Academy Street, Trenton, NJ, 8608",40.2220073,-74.7638468
League of Historical Societies of NJ,Cultural Site,New Jersey State Library,185 N. State Street,P.O. Box 520,Trenton,NJ,08625,609-278-2640/162,NA,rfitzpatrick@njstatelib.org,"185 N. State Street, Trenton, NJ, 8625",40.2230275,-74.7756092
League of Historical Societies of NJ,Historical Society,Asbury Park Historical Society,508 4th Ave,P.O. Box 543,Asbury Park,NJ,07712,732-869-4478,aphistoricalsociety.org,Â info@aphistoricalsociety.orgÂ ,"508 4th Ave, Asbury Park, NJ, 7712",40.2236419,-74.0061436
League of Historical Societies of NJ,Museum,Asbury Park Museum  at The Berkeley Ocean Front Hotel,1401 Ocean Avenue,P.O. Box 1485,Asbury Park,NJ,07712,732-539-7574,ap-museum.org,info@apmuseum.org,"1401 Ocean Avenue, Asbury Park, NJ, 7712",40.2252613,-73.9995048
League of Historical Societies of NJ,Historical Society,Trenton Historical Society,218 Parkside Avenue,NA,Trenton,NJ,08618,609-369-4478,NA,Society@trentonhistory.org,"218 Parkside Avenue, Trenton, NJ, 8618",40.2347638,-74.7886581
League of Historical Societies of NJ,"Presevation, Organization",Monmouth County Historical Commission Hall of Records,1 East Main Street,NA,Freehold,NJ,07728,732-431-7413,visitmonmouth.com,NA,"1 East Main Street, Freehold, NJ, 7728",40.262727,-74.270564
League of Historical Societies of NJ,Organization,Monmouth County Historical Association,70 Court Street,NA,Freehold,NJ,07728,732-462-1466,monmouthhistory.org,NA,"70 Court Street, Freehold, NJ, 7728",40.2629337,-74.2783353
League of Historical Societies of NJ,Historical Society,Freehold Twp. Heritage Society,189b Wemrock Road,NA,Freehold,NJ,07728,732-577-9766,www.oakleyfarmmuseum.org,NA,"189b Wemrock Road, Freehold, NJ, 7728",40.2632858,-74.3109171
League of Historical Societies of NJ,Cultural Site,Preservation New Jersey,NA,P.O. Box 7815,West Trenton,NJ,08628,973-813-2032,preservationnj.org,NA,"NA, West Trenton, NJ, 8628",40.263997,-74.8184964
League of Historical Societies of NJ,Historical Society,Hightstown-East Windsor Historical Society,164 North Main Street,NA,Hightstown,NJ,08520,609-448-9119,hewhs.com,NA,"164 North Main Street, Hightstown, NJ, 8520",40.2709728,-74.5224166
League of Historical Societies of NJ,Historical Society,Ewing Township Historic Preservation Society,27 Federal City Road,NA,Ewing,NJ,08638,609-883-2455,ethps.org,NA,"27 Federal City Road, Ewing, NJ, 8638",40.278797,-74.770174
League of Historical Societies of NJ,Organization,Friends of the William Green Farmhouse,27 Federal City Road,NA,Ewing,NJ,08638,609-510-9120,williamgreenhouse.org,NA,"27 Federal City Road, Ewing, NJ, 8638",40.278797,-74.770174
League of Historical Societies of NJ,Historical Society,Historical Society of West Windsor,50 Southfield Road,NA,West Windsor,NJ,08550,609-751-4061,NA,westwindsorhistory@gmail.com,"50 Southfield Road, West Windsor, NJ, 8550",40.2791573,-74.5903557
League of Historical Societies of NJ,Cultural Site,Descendants of Founders of New Jersey,194 Dutch Lane Road,NA,Freehold,NJ,07728,732-780-9284,njfounders.org,NA,"194 Dutch Lane Road, Freehold, NJ, 7728",40.283158,-74.2498793
League of Historical Societies of NJ,Historical Society,Lawrence Historical Society,NA,P.O. Box 6025,Lawrenceville,NJ,08648,609-895-1728,thelhs.org,NA,"NA, Lawrenceville, NJ, 8648",40.2973299,-74.7296049
League of Historical Societies of NJ,Cultural Site,Ten Crucial Days,17 Paddock Drive,NA,Lawrence,NJ,08648,609-389-5657,www.TenCrucialDays.org,NA,"17 Paddock Drive, Lawrence, NJ, 8648",40.301039,-74.7527376
League of Historical Societies of NJ,Historical Society,Eatontown Historical Society,75 Broad Street,NA,Eatontown,NJ,07724,732-542-4026,tourism.visitmonmouth.com/page.aspx?ID=4024,eatontownhistoricalmuseum@gmail.com,"75 Broad Street, Eatontown, NJ, 7724",40.3063291,-74.0569438
League of Historical Societies of NJ,Historical Society,Cranbury Historical & Preservation Society,6 South Main Street,NA,Cranbury,NJ,08512,609-860-1889,cranburyhistory.org,NA,"6 South Main Street, Cranbury, NJ, 8512",40.3089793,-74.517075
Stockton SJCHC Historical Societies & Museums,Historical Society,Stafford Township Historical Society,120 North Main St,NA,NA,NJ,NA,NA,http://staffordhistory.org/index.html,NA,"120 North Main St, NJ",40.3184115,-74.512938
League of Historical Societies of NJ,Historical Society,Historical Society of Princeton,354 Quaker Road,NA,Princeton,NJ,08540,609-921-6748,princetonhistory.org,NA,"354 Quaker Road, Princeton, NJ, 8540",40.3246198,-74.679963
League of Historical Societies of NJ,"Presevation, Organization",Monroe Township Historic Preservation Commission,1 Municipal Plaza,NA,Monroe Township,NJ,08831,732-521-4400,https://monroetwp.com/index.php/boards-commisions/historic-preservation,jkaterba@monroetud.com,"1 Municipal Plaza, Monroe Township, NJ, 8831",40.3272362,-74.4393042
League of Historical Societies of NJ,Historical Society,Hopewell Valley Historical Society,NA,P.O. Box 371,Pennington,NJ,08534,609-219-0300,hopewellvalleyhistory.org,NA,"NA, Pennington, NJ, 8534",40.3281213,-74.7909992
League of Historical Societies of NJ,"Historical Society, Genealogy",Monmouth County Genealogy Society,NA,P. O. Box 5,Lincroft,NJ,07738,609-448-9515,njmcgs.org,NA,"NA, Lincroft, NJ, 7738",40.3306656,-74.1209748
League of Historical Societies of NJ,Cultural Site,Parker Homestead 1665 Inc,NA,P.O. Box 82,Little Silver,NJ,08757,NA,NA,keithwells@gmail.com,"NA, Little Silver, NJ, 8757",40.3367769,-74.0470837
League of Historical Societies of NJ,Organization,Jamesburg Historical Association,131 Perrineville Road,NA,Jamesburg,NJ,08831,732-521-2222,NA,jamesburghistoricalasdociation@gmail.com,"131 Perrineville Road, Jamesburg, NJ, 8831",40.3451619,-74.4396394
League of Historical Societies of NJ,Museum,Morven Museum and Garden,55 Stockton Street,NA,Princeton,NJ,08540,609-924-8331,morven.org,NA,"55 Stockton Street, Princeton, NJ, 8540",40.3477912,-74.666936
League of Historical Societies of NJ,Historical Society,Princeton Battlefield Society,NA,P. O. Box 7645,Princeton,NJ,08543,NA,pbs1777.org,NA,"NA, Princeton, NJ, 8543",40.3496953,-74.6597376
League of Historical Societies of NJ,Organization,Navesink Marine Heritage Association,930 West Front Street,NA,Red Bank,NJ,07701,732-530-2035,NA,contact@navesinmartime.org,"930 West Front Street, Red Bank, NJ, 7701",40.3509606,-74.0772031
Curated using Google,Organization,Red Bank Village Association,55 W Front St,NA,Red Bank,NJ,07701,NA,NA,NA,"55 W Front St, Red Bank, NJ, 07701",40.351203,-74.0675791
League of Historical Societies of NJ,Cultural Site,Red Bank Public Library,84 West Front Street,NA,Red Bank,NJ,07701,732-842-0690,redbanklibrary.org,NA,"84 West Front Street, Red Bank, NJ, 7701",40.3516709,-74.0691081
League of Historical Societies of NJ,Museum,New Jersey Scout Museum,705 Ginesi Drive,NA,Morganville,NJ,07751,732-809-7040,njsm.org,NA,"705 Ginesi Drive, Morganville, NJ, 7751",40.3519287,-74.293197
Curated using Google,Bookstore,Farley's Bookshop,44 South Main Street,NA,New Hope,PA,18938,NA,NA,NA,"44 South Main Street, New Hope, PA, 18938",40.3635065,-74.9512684
Curated using Google,Historical Society,River Road Books,759 River Road,NA,Fair Haven,NJ,07704,NA,NA,NA,"759 River Road, Fair Haven, NJ, 07704",40.364581,-74.035452
League of Historical Societies of NJ,Historical Society,Lambertville Historical Society,60 Bridge Street,P.O. Box 2,Lambertville,NJ,08530,609-397-0770,lambertvillehistoricalsociety.org,NA,"60 Bridge Street, Lambertville, NJ, 8530",40.3660175,-74.9436784
League of Historical Societies of NJ,Organization,Rockingham Association,84 Laurel Ave,P.O. Box 496,Kingston,NJ,08528,609-683-7132,NA,rockingham1783@yahoo.com,"84 Laurel Ave, Kingston, NJ, 8528",40.3822604,-74.6167757
League of Historical Societies of NJ,Museum,Hopewell Museum,28 East Broad Street,NA,Hopewell,NJ,08525,609-731-9334,hopewellmuseumnj.org,NA,"28 East Broad Street, Hopewell, NJ, 8525",40.3901375,-74.7599459
League of Historical Societies of NJ,Cultural Site,D&R Canal Watch,NA,P.O. Box 2,Rocky Hill,NJ,08553,908-240-0488,canalwatch.org,info@canalwatch.org,"NA, Rocky Hill, NJ, 8553",40.3998283,-74.6343244
League of Historical Societies of NJ,Historical Society,Historical Society of Highlands,NA,P.O. Box 13,Highlands,NJ,07732,732-842-1719,facebook.com/groups/HistoricalSocietyofHighlands/about/,nanakrd@gmail.com,"NA, Highlands, NJ, 7732",40.40372,-73.991527
League of Historical Societies of NJ,Historical Society,Victorian Society,20 King James Lane,NA,Atlantic Highlands,NJ,07716,973-744-1561,victoriansociety.org,NA,"20 King James Lane, Atlantic Highlands, NJ, 7716",40.4041087,-74.0295304
League of Historical Societies of NJ,Historical Society,Delaware River Mill Society,NA,P.O. Box 298,Stockton,NJ,08559,609-397-3586,prallsvillemills.org,NA,"NA, Stockton, NJ, 8559",40.407883,-74.9782238
League of Historical Societies of NJ,Historical Society,Twin Lights Historical Society,Lighthouse Road,NA,Highlands,NJ,07732,732-872-1814,twinlightslighthouse.com,NA,"Lighthouse Road, Highlands, NJ, 7732",40.410546,-74.0015217
League of Historical Societies of NJ,Historical Society,Atlantic Highlands Historical Society,27 Prospect Cir,P.O. Box 108,Atlantic Highlands,NJ,07716,732-872-1861,ahhistory.org,NA,"27 Prospect Cir, Atlantic Highlands, NJ, 7716",40.4119322,-74.03368
League of Historical Societies of NJ,Historical Society,Matawan Historical Society,NA,P.O. Box 41,Matawan,NJ,07747,732-742-7735,matawanhistoricalsociety.org,NA,"NA, Matawan, NJ, 7747",40.41483,-74.2295891
League of Historical Societies of NJ,Historical Society,East Amwell Historical Society,1053 Old York Road,P.O. Box 98,Ringoes,NJ,08551,609-285-0322,eastamwellhistory.org,NA,"1053 Old York Road, Ringoes, NJ, 8551",40.4346963,-74.8645086
League of Historical Societies of NJ,Historical Society,East Brunswick Historical Society,78 Milltown Rd,NA,East Brunswick,NJ,08816,732-249-7397,ebhistoricalsociety.webs.com,NA,"78 Milltown Rd, East Brunswick, NJ, 8816",40.441041,-74.399728
League of Historical Societies of NJ,Historical Society,Delaware Township Historical Society,NA,P.O. Box 149,Sergeantsville,NJ,08557,609-397-5348,dthsnj.org,NA,"NA, Sergeantsville, NJ, 8557",40.4460509,-74.9441138
League of Historical Societies of NJ,"Presevation, Organization",South River Historical & Preservation Society,NA,Box 446,South River,NJ,08882,732-613-3078,https://southriverhistory.org/,southriverhistory@gmail.com,"NA, South River, NJ, 8882",40.446495,-74.3859831
League of Historical Societies of NJ,Historical Society,Sayreville Historical Society,NA,P.O. Box 66,Sayreville,NJ,08872,732-390-7048,NA,NA,"NA, Sayreville, NJ, 8872",40.4635362,-74.3618499
League of Historical Societies of NJ,Cultural Site,Middlesex County Office of Arts & History,703 Jersey Avenue,NA,New Brunswick,NJ,08901,732-745-4489,co.middlesex.nj.us/Government/Departments/BDE/CulturalandHeritage/,cultureandheritage@co.middlesex.nj.us,"703 Jersey Avenue, New Brunswick, NJ, 8901",40.4769543,-74.4717581
League of Historical Societies of NJ,Historical Society,New Brunswick Historical Society,60 Livingston Avenue,NA,New Brunswick,NJ,08901,732-745-5108,NA,newbrunswickhistorical@gmail.com,"60 Livingston Avenue, New Brunswick, NJ, 8901",40.4913782,-74.4455497
Curated using Google,Historical Society,Hidden Gems Literary Emporium,55b Morris St,NA,New Brunswick,NJ,08901,NA,NA,NA,"55b Morris St, New Brunswick, NJ, 08901",40.4913927,-74.4441924
League of Historical Societies of NJ,Cultural Site,Raritan-Millstone Heritage Alliance,NA,P.O. Box 5583,Somerset,NJ,08875,732-738-1165,raritanmillstone.org,NA,"NA, Somerset, NJ, 8875",40.4976041,-74.4884868
League of Historical Societies of NJ,Library,Franklin Township Public Library,485 DeMott Lane,NA,Somerset,NJ,08873,732-873-8700,franklintwp.org,NA,"485 DeMott Lane, Somerset, NJ, 8873",40.4980729,-74.5254432
League of Historical Societies of NJ,Organization,Proprietary House Association,149 Kearny Avenue,NA,Perth Amboy,NJ,08861,732-826-5527,theproprietaryhouse.org,NA,"149 Kearny Avenue, Perth Amboy, NJ, 8861",40.5034163,-74.2692933
League of Historical Societies of NJ,Cultural Site,Somerset County Library System,379 South Branch Road,NA,Hillsborough,NJ,08844,908-369-2200,sclsnj.org,NA,"379 South Branch Road, Hillsborough, NJ, 8844",40.5066858,-74.6746691
Curated using Google,Historical Society,Hunterdon County Historical Society,114 Main St,NA,Flemington,NJ,08822,NA,NA,NA,"114 Main St, Flemington, NJ, 08822",40.5094274,-74.8586913
League of Historical Societies of NJ,Historical Society,Hunterdon County Historical Society,114 Main Street,NA,Flemington,NJ,08822,908-782-1091,hunterdonhistory.org,NA,"114 Main Street, Flemington, NJ, 8822",40.5094274,-74.8586913
League of Historical Societies of NJ,Cultural Site,Samuel Fleming House,5 Bonnell Street,NA,Flemington,NJ,08822,908-782-4607,samuelfleminghouse.org,NA,"5 Bonnell Street, Flemington, NJ, 8822",40.5095516,-74.8615958
League of Historical Societies of NJ,"Presevation, Organization",Fellowship for Metlar House,1281 River Road,NA,Piscataway,NJ,08855,732-463-8363,metlarbodinehousemuseum.org,NA,"1281 River Road, Piscataway, NJ, 8855",40.5123222,-74.4566385
League of Historical Societies of NJ,"Presevation, Organization",Friends of Historic Flemington,NA,P.O. Box 289,Flemington,NJ,08822,NA,NA,jeanette.fullerton@gmail.com,"NA, Flemington, NJ, 8822",40.5130953,-74.8591333
League of Historical Societies of NJ,Cultural Site,Hunterdon County Cultural & Heritage Commission,NA,P.O. Box 2900,Flemington,NJ,08822,908-788-1256,co.hunterdon.nj.us/depts/c&h/c&h.htm,cultural@co.hunterdon.nj.us,"NA, Flemington, NJ, 8822",40.5130953,-74.8591333
League of Historical Societies of NJ,"Presevation, Organization",Meadows Foundation,1289 Easton Avenue,NA,Somerset,NJ,08873,732-748-7657,themeadowsfoundation.org,NA,"1289 Easton Avenue, Somerset, NJ, 8873",40.5219292,-74.4938697
League of Historical Societies of NJ,Cultural Site,Distributed Tech Services Alexander Library at Rutgers,47 Davidson Road,NA,Piscataway,NJ,08854,732-932-7851,libraries.rutgers.edu,NA,"47 Davidson Road, Piscataway, NJ, 8854",40.5233188,-74.453582
League of Historical Societies of NJ,Cultural Site,Jersey Blues Chapter Daughters of the American Revolution,21 Sunburst Lane,NA,Piscataway,NJ,08854,732-463-8978,NA,a_chancer@hotmail.com,"21 Sunburst Lane, Piscataway, NJ, 8854",40.531518,-74.43549
League of Historical Societies of NJ,Archives,Danish Archive Northeast (DANE),855 New Durham Road,NA,Edison,NJ,08817,732-287-6445,http://www.rootsweb.ancestry.com/~njdane/index.html,danenj@aol.com,"855 New Durham Road, Edison, NJ, 8817",40.5416128,-74.3932771
League of Historical Societies of NJ,Education,Ukrainian History and Education Center,135 Davidson Avenue,NA,Somerset,NJ,08873,732-356-0132,https://www.ukrhec.org,NA,"135 Davidson Avenue, Somerset, NJ, 8873",40.5422307,-74.5205717
League of Historical Societies of NJ,Historical Society,Metuchen-Edison Historical Society,NA,P.O. Box 61,Metuchen,NJ,08840,732-225-9451,metuchen-edisonhistsoc.org,NA,"NA, Metuchen, NJ, 8840",40.5431598,-74.3632049
League of Historical Societies of NJ,"Presevation, Organization",Friends of the Abraham Staats House,17 Von Steuben Lane,P.O. Box 115,South Bound Brook,NJ,08880,732-356-4789; 469-3198,staatshouse.org,NA,"17 Von Steuben Lane, South Bound Brook, NJ, 8880",40.5511438,-74.5225868
League of Historical Societies of NJ,Organization,Historical Association of Woodbridge Twp.,NA,P.O. Box 83,Woodbridge,NJ,07095,732-634-9397,facebook.com/HAWTWP,brendavelasco@msn.com,"NA, Woodbridge, NJ, 7095",40.5536918,-74.2823573
League of Historical Societies of NJ,Historical Society,Somerset County Historical Society,9 Van Veghten Drive,NA,Bridgewater,NJ,08807,908-218-1281,somersethistorynj.org,NA,"9 Van Veghten Drive, Bridgewater, NJ, 8807",40.5573821,-74.58768
League of Historical Societies of NJ,Organization,Woodbridge Twp Historic Preservation Commission,582 Rahway Avenue,NA,Woodbridge,NJ,07095,732-634-9124,woodbridgetownshiphistory.org,NA,"582 Rahway Avenue, Woodbridge, NJ, 7095",40.5610262,-74.273579
League of Historical Societies of NJ,Organization,Heritage Trail Association Inc.,941 East Main Street,P.O. Box 698,Bridgewater,NJ,08807,(310) 691-9388,htanj.org,NA,"941 East Main Street, Bridgewater, NJ, 8807",40.5616919,-74.5538723
League of Historical Societies of NJ,Cultural Site,Thomas Edison Center At Menlo Park,37 Christie Street,P.O. Box 656,Edison,NJ,08818,732-494-4194,menloparkmuseum.org,NA,"37 Christie Street, Edison, NJ, 8818",40.5635602,-74.3392815
League of Historical Societies of NJ,"Presevation, Organization",Historical & Cultural Committee of Raritan,114 Avonridge Road,NA,Raritan,NJ,08869,908-526-7784,NA,Karen.eastlund@gmail.com,"114 Avonridge Road, Raritan, NJ, 8869",40.5650087,-74.6454494
League of Historical Societies of NJ,"Presevation, Organization",Friends of the Wallace House and Old Dutch Parsonage,71 Somerset Street,P.O. Box 225,Somerville,NJ,08876,908-304-0990,wallacehousefriends.blogspot.com,wyckoffhistory.org/stone-houses/van-voorhees-quackenbush-zabriskie-house/,"71 Somerset Street, Somerville, NJ, 8876",40.569979,-74.6218445
League of Historical Societies of NJ,"Cultural Site, Organization",Somerville Historic Advisory Committee,25 West End Avenue,NA,Somerville,NJ,08876,908-725-2300,somervillenj.org/content/580/158/618/default.aspx,cynthia_crothers@yahoo.com,"25 West End Avenue, Somerville, NJ, 8876",40.570321,-74.6188455
League of Historical Societies of NJ,Museum,Readington Museums,114 Dreahook Road,PO Box 216,Stanton,NJ,08885,NA,NA,readingtonmuseums@gmail.com,"114 Dreahook Road, Stanton, NJ, 8885",40.5806223,-74.8293621
League of Historical Societies of NJ,Historical Society,Green Brook Historical Society,111 Greenbrook Road,NA,Green Brook,NJ,08812,732-331-2078,www.greenbrooktwp.org,NA,"111 Greenbrook Road, Green Brook, NJ, 8812",40.599083,-74.473428
League of Historical Societies of NJ,Historical Society,Historical Society of Plainfield / Drake House Museum,602 West Front Street,NA,Plainfield,NJ,07060,908-755-5831,drakehouseplainfieldnj.org,NA,"602 West Front Street, Plainfield, NJ, 7060",40.6037424,-74.4446017
League of Historical Societies of NJ,Museum,Merchants & Drovers Tavern Museum Assn.,NA,P.O. Box 1842,Rahway,NJ,07065,732-381-0441,merchantsanddrovers.org,NA,"NA, Rahway, NJ, 7065",40.6081591,-74.2776468
League of Historical Societies of NJ,"Presevation, Organization",Friends of Vermeule Mansion Inc.,614 Greenbrook Road,NA,North Plainfield,NJ,07063,908-462-4209,NA,naciampa@aol.com,"614 Greenbrook Road, North Plainfield, NJ, 7063",40.6090355,-74.4555956
League of Historical Societies of NJ,Cultural Site,Plainfield Public Library,800 Park Avenue,NA,Plainfield,NJ,07060,908-757-1111,plainfieldlibrary.info,drakehouseplainfield@gmail.com,"800 Park Avenue, Plainfield, NJ, 7060",40.6133591,-74.4153546
League of Historical Societies of NJ,Organization,Watchung Historical Commission,15 Mountain Boulevard,NA,Watchung,NJ,07069,NA,NA,amberchoudry@gmail.com,"15 Mountain Boulevard, Watchung, NJ, 7069",40.635967,-74.453175
Curated using Google,Bookstore,Town Book Store,270 E Broad St,NA,Westfield,NJ,07090,NA,NA,NA,"270 E Broad St, Westfield, NJ, 07090",40.6525802,-74.3472584
League of Historical Societies of NJ,"Presevation, Organization",Friends of the Jacobus Vanderveer House,3055 River Road,P.O. Box 723,Bedminster,NJ,07921,908-396-6053,jvanderveerhouse.org,NA,"3055 River Road, Bedminster, NJ, 7921",40.6542358,-74.6634028
League of Historical Societies of NJ,Cultural Site,Washington-Rochambeau Revolutionary Route New Jersey (W3R-NJ),411 Elm Street,NA,NA,NJ,NA,908-917-4706,w3r-nj.com,NA,"411 Elm Street, NJ",40.654512,-74.3539897
League of Historical Societies of NJ,Historical Society,Westfield Historical Society,314 Mountain Avenue,P.O. Box 613,Westfield,NJ,07090,908-654-1794,westfieldhistoricalsociety.org,NA,"314 Mountain Avenue, Westfield, NJ, 7090",40.6566777,-74.3493249
League of Historical Societies of NJ,Historical Society,Cranford Historical Society,38 Springfield Avenue,NA,Cranford,NJ,07016,908-276-0082,cranfordhistoricalsociety.com,NA,"38 Springfield Avenue, Cranford, NJ, 7016",40.6588792,-74.3040036
League of Historical Societies of NJ,Cultural Site,Union County Div. of Cultural & Heritage Affairs,633 Pearl Street,NA,Elizabeth,NJ,07202,908-558-2550,NA,culturalinfo@ucnj.org,"633 Pearl Street, Elizabeth, NJ, 7202",40.6600426,-74.2142837
League of Historical Societies of NJ,Historical Society,West Portal Historic Society,292 Asbury-West Portal Road,P.O. Box 134,Bethlehem,NJ,08802,908-479-6323,NA,hfe@embarqmail.com,"292 Asbury-West Portal Road, Bethlehem, NJ, 8802",40.6628613,-75.0333037
League of Historical Societies of NJ,Historical Society,Roselle Park Historical Society,309 E. Grant Avenue,NA,Roselle Park,NJ,07204,908-245-1776,roselleparkhistoricalsociety.org,NA,"309 E. Grant Avenue, Roselle Park, NJ, 7204",40.6652537,-74.2566716
League of Historical Societies of NJ,Organization,U.S. Golf Association Museum,77 Liberty Corner Road,NA,Liberty Corner,NJ,07938,908-234-2300,usga.org,NA,"77 Liberty Corner Road, Liberty Corner, NJ, 7938",40.6658909,-74.5908245
League of Historical Societies of NJ,Historical Society,Bayonne Historical Society,NA,P.O. Box 3034,Bayonne,NJ,07002,NA,NA,rgumkowski@optimum.net,"NA, Bayonne, NJ, 7002",40.6687141,-74.1143091
League of Historical Societies of NJ,Historical Society,Tewksbury Historical Society,NA,P.O. Box 457,Oldwick,NJ,08858,908-832-6734,tewksburyhistory.net,NA,"NA, Oldwick, NJ, 8858",40.6726014,-74.7473849
League of Historical Societies of NJ,Museum,Liberty Hall Museum,1003 Morris Avenue,NA,Union,NJ,07083,908-527-0400,https://lighthousechallengenj.com/,libertyhall@kean.edu,"1003 Morris Avenue, Union, NJ, 7083",40.6797978,-74.2274205
League of Historical Societies of NJ,Historical Society,Historical Society of Berkeley Heights,29 Park Avenue,NA,Berkeley Heights,NJ,07922,848-235-5740,NA,Dreamw666@yahoo.com,"29 Park Avenue, Berkeley Heights, NJ, 7922",40.6818251,-74.4426273
League of Historical Societies of NJ,Historical Society,Hillside Historical Society,111 Conant Street,NA,Hillside,NJ,07205,908-353-8828,hillsidehistoricalsociety.org,NA,"111 Conant Street, Hillside, NJ, 7205",40.6875158,-74.2191466
League of Historical Societies of NJ,Historical Society,Union Township Historical Society,909 Caldwell Avenue,NA,Union,NJ,07083,908-591-4377,unionnjhistory.com,NA,"909 Caldwell Avenue, Union, NJ, 7083",40.695538,-74.278489
Curated using Google,Bookstore,Here's the Story Bookstore,1043 Stuyvesant Ave.,NA,Union,NJ,07083,NA,NA,NA,"1043 Stuyvesant Ave., Union, NJ, 07083",40.6962459,-74.2699223
Curated using Google,Historical Society,Union Township Historical Society,1287 Stuyvesant Ave,NA,Union,NJ,07083,NA,NA,NA,"1287 Stuyvesant Ave, Union, NJ, 07083",40.7008613,-74.2649215
League of Historical Societies of NJ,Historical Society,Historical Society of  Somerset Hills,15 West Oak Street,P.O. Box 136,Basking Ridge,NJ,07920,908-231-1770,thssh.org,NA,"15 West Oak Street, Basking Ridge, NJ, 7920",40.7064545,-74.549888
League of Historical Societies of NJ,Historical Society,New Providence Historical Society,377 Elkwood Avenue,NA,New Providence,NJ,07974,908-463-4108,newprovidencehistorical.com,NA,"377 Elkwood Avenue, New Providence, NJ, 7974",40.7086718,-74.4040653
League of Historical Societies of NJ,Historical Society,Springfield Historical Society,125 Morris Avenue,NA,Union,NJ,07081,973-912-4464,NA,ibjurczak@gmail.com,"125 Morris Avenue, Union, NJ, 7081",40.7096792,-74.3071631
League of Historical Societies of NJ,Cultural Site,Calvary Episcopal Church,31 Woodland Avenue,NA,Summit,NJ,07901,908-277-1814,calvarysummit.org,NA,"31 Woodland Avenue, Summit, NJ, 7901",40.7195831,-74.3603169
League of Historical Societies of NJ,Historical Society,Historical Society of Chatham Township,24 Southern Blvd.,P.O. Box 262,Chatham,NJ,07928,973-701-0166,chathamtownshiphistoricalsociety.org,NA,"24 Southern Blvd., Chatham, NJ, 7928",40.7204369,-74.4022244
League of Historical Societies of NJ,Historical Society,Summit Historical Society,90 Butler Parkway,NA,Summit,NJ,07901,908-277-1747,summithistoricalsociety.com,NA,"90 Butler Parkway, Summit, NJ, 7901",40.7300505,-74.3697892
Curated using Google,Bookstore,[words] Bookstore,179 Maplewood Ave,NA,Maplewood,NJ,07040,NA,NA,NA,"179 Maplewood Ave, Maplewood, NJ, 07040",40.730577,-74.2783947
League of Historical Societies of NJ,Cultural Site,Hudson County Cultural & Heritage,583 Newark Avenue,NA,Jersey City,NJ,07306,201-459-2070,https://hudsoncountyculturalaffairs.org/,admin@hudsoncountyculturalaffairs.org,"583 Newark Avenue, Jersey City, NJ, 7306",40.7316205,-74.0574948
Curated using Google,Historical Society,Source of Knowledge Book Store,867 Broad St,NA,Newark,NJ,07102,NA,NA,NA,"867 Broad St, Newark, NJ, 07102",40.7334658,-74.1734701
League of Historical Societies of NJ,Cultural Site,Kimmage Publishing LLC,3 Iris Road,NA,Summit,NJ,07901,908-273-8712,www.fitzgeraldsnj.com,NA,"3 Iris Road, Summit, NJ, 7901",40.7338775,-74.3681218
League of Historical Societies of NJ,Organization,Durand-Hedden House & Garden Association,523 Ridgewood Road,P.O. Box 206,Maplewood,NJ,07040,973-763-7712,durandhedden.org,NA,"523 Ridgewood Road, Maplewood, NJ, 7040",40.7352208,-74.278885
League of Historical Societies of NJ,"Cultural Site, Organization",Newark Preservation & Landmarks Committee,NA,P.O. Box 1066,Newark,NJ,07102,973-643-4104,newarklandmarks.org,NA,"NA, Newark, NJ, 7102",40.735657,-74.1723667
League of Historical Societies of NJ,Historical Society,New Jersey Historical Society,52 Park Place,NA,Newark,NJ,07102,973-596-8500,jerseyhistory.org,NA,"52 Park Place, Newark, NJ, 7102",40.7387846,-74.1684915
League of Historical Societies of NJ,Historical Society,Chatham Historical Society,NA,P.O. Box 682,Chatham,NJ,07928,NA,chathamnjhistoricalsociety.org,chathamnjhistory@gmail.com,"NA, Chatham, NJ, 7928",40.7409242,-74.3836711
League of Historical Societies of NJ,Cultural Site,New Jersey Catholic Historical Commission Walsh Library,400 S. Orange Avenue,NA,South Orange,NJ,07079,973-275-2378,njhistoryroundtables.org/NJARRT/Start.html,Alan.Delozier@shu.edu,"400 S. Orange Avenue, South Orange, NJ, 7079",40.7417808,-74.2445798
League of Historical Societies of NJ,Historical Society,Medical History Society of NJ c/o UMDNJ Special Collections Smith Library,30 12th Ave,NA,Newark,NJ,07101,973-972-7830,mhsnj.org,NA,"30 12th Ave, Newark, NJ, 7101",40.7420423,-74.1890791
League of Historical Societies of NJ,Historical Society,Harding Township Historical Society,NA,P.O. Box 1776,New Vernon,NJ,07976,NA,hths.org,NA,"NA, New Vernon, NJ, 7976",40.7453784,-74.4973774
League of Historical Societies of NJ,"Presevation, Organization",South Orange Historical & Preservation Society,NA,P.O. Box 61,South Orange,NJ,07079,201-240-1786,sohps.org,NA,"NA, South Orange, NJ, 7079",40.7474966,-74.2635376
League of Historical Societies of NJ,Organization,Montrose Park Historic District Association,NA,P.O. Box 953,South Orange,NJ,07079,NA,mphda.org,NA,"NA, South Orange, NJ, 7079",40.7474966,-74.2635376
League of Historical Societies of NJ,Historical Society,Millburn-Short Hills Historical Society,NA,P.O. Box 243,Short Hills,NJ,07078,973-564-9519,mshhistsoc.org,NA,"NA, Short Hills, NJ, 7078",40.7478786,-74.3254271
League of Historical Societies of NJ,Museum,Hoboken Historical Museum and Cultural Center,1301 Hudson St.,P.O. Box 3296,Hoboken,NJ,07030,201-656-2243,hobokenmuseum.org,NA,"1301 Hudson St., Hoboken, NJ, 7030",40.7521438,-74.0249925
League of Historical Societies of NJ,Historical Society,Washington Township Historical Society-Morris County,6 Fairview Avenue,P.O. Box 189,Long Valley,NJ,07853,908-876-9696,wthsnj.org,C/O Julie Diddell Chair,"6 Fairview Avenue, Long Valley, NJ, 7853",40.7874356,-74.7791962
League of Historical Societies of NJ,Historical Society,Historical Society of Florham Park,NA,P.O. Box 193,Florham Park,NJ,07932,973-377-1897,florhamparkboro.net/local_clubs_and_associations.html,rdavidsonfp@gmail.com,"NA, Florham Park, NJ, 7932",40.7881643,-74.3891647
League of Historical Societies of NJ,Historical Society,Mendham Borough Historical Society,9 Essex Drive,NA,Mendham,NJ,07945,973-543-6081,inmendham.com/mbhist.htm,history@inmendham.com,"9 Essex Drive, Mendham, NJ, 7945",40.7899225,-74.5933171
League of Historical Societies of NJ,"Cultural Site, Genealogy",North Jersey History & Genealogy Center Morristown & Morris Township Library,One Miller Road,NA,Morristown,NJ,07960,973-538-3473,jfpl.org,NA,"One Miller Road, Morristown, NJ, 7960",40.7917027,-74.4808357
League of Historical Societies of NJ,Museum,Macculloch Hall Historical Museum,45 Macculloch Avenue,NA,Morristown,NJ,07960,973-538-2404,MaccullochHall.org,NA,"45 Macculloch Avenue, Morristown, NJ, 7960",40.792573,-74.481932
League of Historical Societies of NJ,Historical Society,Historical Society of Bloomfield,90 Broad Street,NA,Bloomfield,NJ,07003,973-743-8844,bloomfieldhistorical.org,NA,"90 Broad Street, Bloomfield, NJ, 7003",40.7966251,-74.1981914
League of Historical Societies of NJ,Historical Society,Morris County Historical Society at Acorn Hall,68 Morris Avenue,NA,Morristown,NJ,07960,973-267-3465,acornhall.org,NA,"68 Morris Avenue, Morristown, NJ, 7960",40.7969358,-74.4598808
Curated using Google,"Lighthouse, Organization",New Jersey Lighthouse Society,21 Washington St,NA,Morristown,NJ,07960,NA,NA,NA,"21 Washington St, Morristown, NJ, 07960",40.7969833,-74.4818989
League of Historical Societies of NJ,Cultural Site,Morris County Heritage Commission,NA,P.O. Box 900,Morristown,NJ,07963,973-829-8117,morriscountynj.gov/mchc/,Heritage@co.morris.nj.us,"NA, Morristown, NJ, 7963",40.7970382,-74.4809868
League of Historical Societies of NJ,Cultural Site,Morristown National Historical Park,30 Washington Place,NA,Morristown,NJ,07960,973-539-2016,nps.gov/morr,jude_pfister@nps.gov,"30 Washington Place, Morristown, NJ, 7960",40.7973298,-74.4671071
League of Historical Societies of NJ,Cultural Site,North Jersey American Revolution Round Table,30 Washington Place,NA,Morristown,NJ,07960,908-234-1509,NA,njamerrevrt@aol.com,"30 Washington Place, Morristown, NJ, 7960",40.7973298,-74.4671071
League of Historical Societies of NJ,Organization,Washington Association of New Jersey,30 Washington Place,P.O. Box 1473,Morristown,NJ,07962,973-292-1874,wanj.org,NA,"30 Washington Place, Morristown, NJ, 7962",40.7973298,-74.4671071
League of Historical Societies of NJ,Cultural Site,Oakeside-Bloomfield Cultural Center,240 Belleville Avenue,NA,Bloomfield,NJ,07003,973-429-0960,oakeside.org,NA,"240 Belleville Avenue, Bloomfield, NJ, 7003",40.7989884,-74.190707
League of Historical Societies of NJ,Historical Society,Livingston Historical Society,68 Elmwood Drive,NA,Livingston,NJ,07039,NA,NA,NA,"68 Elmwood Drive, Livingston, NJ, 7039",40.8038791,-74.3095347
League of Historical Societies of NJ,Historical Society,Glen Ridge Historical Society,NA,P.O. Box 164,Glen Ridge,NJ,07028,973-748-8977,glenridgehistory.org,NA,"NA, Glen Ridge, NJ, 7028",40.805378,-74.2037566
League of Historical Societies of NJ,Historical Society,Montclair History Center,108 Orange Road,NA,Montclair,NJ,07042,973-744-1796,montclairhistorical.org,NA,"108 Orange Road, Montclair, NJ, 7042",40.8119361,-74.2227823
League of Historical Societies of NJ,Historical Society,Lyndhurst Historical Society,NA,P.O. Box 135,Lyndhurst,NJ,07071,201-804-2513,lyndhursthistoricalsociety.org,NA,"NA, Lyndhurst, NJ, 7071",40.8120247,-74.1242816
Curated using Google,Bookstore,Montclair Book Center,221 Glenridge Ave,NA,Montclair,NJ,07042,NA,NA,NA,"221 Glenridge Ave, Montclair, NJ, 07042",40.8138731,-74.2169275
League of Historical Societies of NJ,Museum,Meadowlands Museum,91 Crane Avenue,NA,Rutherford,NJ,07070,201-935-1175,meadowlandsmuseum.com,NA,"91 Crane Avenue, Rutherford, NJ, 7070",40.8148333,-74.1045049
League of Historical Societies of NJ,"Presevation, Organization",Friends of Anderson Park,NA,P.O. Box 43712,Montclair,NJ,07043,973-495-9056,friendsofandersonpark.com,NA,"NA, Montclair, NJ, 7043",40.8164458,-74.2210643
League of Historical Societies of NJ,Historical Society,East Hanover Historical Society,NA,P.O. Box 68,East Hanover,NJ,07936,973-428-8200,easthanovertownship.com/community.htm,carl@vidalinsuranceagency.com,"NA, East Hanover, NJ, 7936",40.8200998,-74.3648731
League of Historical Societies of NJ,Museum,Whippany Railway Museum,1 Railroad Plaza,P.O. Box 16,Whippany,NJ,07981,973-887-8177,whippanyrailwaymuseum.net,info@whippanyrailwaymuseum.net,"1 Railroad Plaza, Whippany, NJ, 7981",40.8232646,-74.4122925
League of Historical Societies of NJ,Cultural Site,Historic Restoration Trust/Kingsland Manor,3 Kingsland Street,NA,Nutley,NJ,07110,973-661-3410,kingslandmanor.org,NA,"3 Kingsland Street, Nutley, NJ, 7110",40.8267513,-74.14254
League of Historical Societies of NJ,Cultural Site,Essex County Division of Culture & History,22 Crestmont Road,NA,Verona,NJ,07044,973-239-7072,essexcountynj.org,NA,"22 Crestmont Road, Verona, NJ, 7044",40.8290266,-74.2257431
Curated using Google,Bookstore,Watchung Booksellers,54 Fairfield St,NA,Montclair,NJ,07042,NA,NA,NA,"54 Fairfield St, Montclair, NJ, 07042",40.8294585,-74.2063678
League of Historical Societies of NJ,"Historical Society, Genealogy",Swackhammer-Dufford Genealogical Society,47 Franklin Place,NA,Morris Plains,NJ,07950,973-539-4721,NA,swhistoric@gmail.com,"47 Franklin Place, Morris Plains, NJ, 7950",40.829531,-74.4826328
League of Historical Societies of NJ,Organization,Morris Plains Museum Association,NA,P.O. Box 231,Morris Plains,NJ,07950,973-683-1089,morrisplainsmuseum.com,NA,"NA, Morris Plains, NJ, 7950",40.8364845,-74.4781885
League of Historical Societies of NJ,Historical Society,Newark History Society,140 Cooper Avenue,NA,Montclair,NJ,07043,917-254-5028,newarkhistorysociety.org,NA,"140 Cooper Avenue, Montclair, NJ, 7043",40.8382255,-74.2010667
League of Historical Societies of NJ,Historical Society,Historical Society of West Caldwell,NA,P.O. Box 1701,West Caldwell,NJ,07006,973-364-0155,NA,rdouglas5@aol.com,"NA, West Caldwell, NJ, 7006",40.8409329,-74.3018154
League of Historical Societies of NJ,Cultural Site,Grover Cleveland Birthplace Memorial Assn,207 Bloomfield Ave.,P.O. Box 183,Caldwell,NJ,07006,973-226-0001,presidentcleveland.org,NA,"207 Bloomfield Ave., Caldwell, NJ, 7006",40.841061,-74.2786555
League of Historical Societies of NJ,Historical Society,Hackettstown Historical Society,106 Church Street,NA,Hackettstown,NJ,07840,908-852-8797,hackettstownhistory.com,NA,"106 Church Street, Hackettstown, NJ, 7840",40.8520574,-74.8281931
League of Historical Societies of NJ,Historical Society,Parsippany Historical & Preservation Society,NA,P.O. Box 6266,Parsippany,NJ,07054,201-572-8178,parsippanyhistoricalsociety.org,NA,"NA, Parsippany, NJ, 7054",40.8578772,-74.4259866
League of Historical Societies of NJ,Historical Society,Cedar Grove Historical Society,903 Pompton Avenue,P.O. Box 461,Cedar Grove,NJ,07009,973-239-5414,cedargrovehistoricalsociety.org,NA,"903 Pompton Avenue, Cedar Grove, NJ, 7009",40.8632892,-74.2323337
League of Historical Societies of NJ,Historical Society,Roxbury Township Historical Society,NA,PO Box 18,Succasunna,NJ,07876,973-347-1755,NA,junger@optonline.net,"NA, Succasunna, NJ, 7876",40.8684325,-74.6404382
League of Historical Societies of NJ,Historical Society,Canal Society of New Jersey,35 Waterview Blvd,Suite 103,Parsippany,NJ,07054,973-588-7440,canalsocietynj.org,NA,"35 Waterview Blvd, Parsippany, NJ, 7054",40.8753937,-74.4260999
League of Historical Societies of NJ,Cultural Site,Roxbury Historic Trust,209 Main Street,NA,Ledgewood,NJ,07852,973-927-7603,roxburynewjersey.com/trust.htm,roxburyhistorictrust@gmail.com,"209 Main Street, Ledgewood, NJ, 7852",40.8770382,-74.6501104
League of Historical Societies of NJ,Historical Society,Little Falls Historical Society,NA,PO Box 1083,Little Falls,NJ,07424,973-865-3040,www.littlefallshistory.org,NA,"NA, Little Falls, NJ, 7424",40.8813513,-74.228185
League of Historical Societies of NJ,"Cultural Site, Organization",Historic Committee of the Twp of Fairfield,96 Big Piece Road,NA,Fairfield,NJ,07004,973-356-5961,www.fairfieldtownshipnj.org,NA,"96 Big Piece Road, Fairfield, NJ, 7004",40.8820208,-74.3195578
League of Historical Societies of NJ,Historical Society,Dover Area Historical Society,55 West Blackwell Street,P.O. Box 609,Dover,NJ,07801,973-361-3525,dovernjhistory.org,NA,"55 West Blackwell Street, Dover, NJ, 7801",40.883996,-74.561177
League of Historical Societies of NJ,"Cultural Site, Organization",Mountain Lakes Historic Preservation Committee,400 Boulevard,NA,Mountain Lakes,NJ,07046,201-572-1774,mtnlakes.org,NA,"400 Boulevard, Mountain Lakes, NJ, 7046",40.887009,-74.450511
League of Historical Societies of NJ,Historical Society,Passaic County Historical Society,3 Valley Road,NA,Paterson,NJ,07503,973-247-0085,lambertcastle.org,NA,"3 Valley Road, Paterson, NJ, 7503",40.9005131,-74.1689638
League of Historical Societies of NJ,Historical Society,Boonton Historical Society & Museum,210 Main Street,NA,Boonton,NJ,07005,973-402-8840,NA,boontonhistory@boonton.org,"210 Main Street, Boonton, NJ, 7005",40.9029192,-74.4078753
League of Historical Societies of NJ,Historical Society,Bergen County Historical Society,1201 Main St,P.O. Box 55,River Edge,NJ,07661,201-343-9492,bergencountyhistory.org,NA,"1201 Main St, River Edge, NJ, 7661",40.912784,-74.032446
League of Historical Societies of NJ,Museum,Paterson Museum,2 Market Street,NA,Paterson,NJ,07501,973-321-1260,patersonmuseumfoundation.com,NA,"2 Market Street, Paterson, NJ, 7501",40.913667,-74.17912
League of Historical Societies of NJ,Historical Society,Montville Township Historical Society,NA,P.O. Box 519,Montville,NJ,07045,973-394-0554,montvillehistoricalsociety.org,NA,"NA, Montville, NJ, 7045",40.9148209,-74.383763
League of Historical Societies of NJ,Museum,Dey Mansion Museum,199 Totowa Road,NA,Wayne,NJ,07470,973-696-1776,passaiccountynj.org/facilities/facility/details/25,joanmc@passaiccounty.org,"199 Totowa Road, Wayne, NJ, 7470",40.9156535,-74.2330489
League of Historical Societies of NJ,Historical Society,Middletown Township Historical Society,NA,P.O. Box 180,Middletown,NJ,07748,NA,facebook.com/middletownhistory,middletownhistory@gmail.com,"NA, Middletown, NJ, 7748",40.9159321,-74.51349
League of Historical Societies of NJ,Museum,American Labor Museum Botto House,83 Norwood Street,NA,Haledon,NJ,07508,973-595-7953,labormuseum.net,Â labormuseum@aol.com,"83 Norwood Street, Haledon, NJ, 7508",40.9349042,-74.1883224
League of Historical Societies of NJ,Historical Society,Historical Society of Boonton Township,"591 Powerville Road
",P.O. Box 362,Boonton,NJ,07005,973-627-2430,historicalsocietyofboontontownship.org,NA,"591 Powerville Road
, Boonton, NJ, 7005",40.9520111,-74.4097462
League of Historical Societies of NJ,Historical Society,Green Township Historical Society,NA,P.O. Box 203,Tranquility,NJ,07879,973-670-8250,freewebs.com/greentwphistoricalsociety,rmsgreendell@gmail.com,"NA, Tranquility, NJ, 7879",40.9562091,-74.8085
League of Historical Societies of NJ,Historical Society,Pequannock Township Historical Society,NA,P.O. Box 242,Pompton Plains,NJ,07444,862-666-9784,pequannockhistory.org,NA,"NA, Pompton Plains, NJ, 7444",40.9681536,-74.2957043
League of Historical Societies of NJ,"Cultural Site, Organization",Lackawanna Cutoff Historical Committee,NA,P.O. Box 326,Greendell,NJ,07839,201-554-7036,NA,dlwcutoff@gmail.com,"NA, Greendell, NJ, 7839",40.9739867,-74.8210006
League of Historical Societies of NJ,Organization,Wayne Historical Commission,533 Berdan Avenue,NA,Wayne,NJ,07470,973-694-7192,NA,dalessand@waynetonship.com,"533 Berdan Avenue, Wayne, NJ, 7470",40.9778847,-74.2428068
League of Historical Societies of NJ,Historical Society,Ridgewood Historical Society,650 East Glen Avenue,NA,Ridgewood,NJ,07450,201-445-1902,ridgewoodhistoricalsociety.org,NA,"650 East Glen Avenue, Ridgewood, NJ, 7450",40.985915,-74.094319
League of Historical Societies of NJ,Cultural Site,Northwest Bergen Hist. Coalition,302 Kensington Drive,NA,Ridgewood,NJ,07450,201-652-7354,NA,smbrogan@aol.com,"302 Kensington Drive, Ridgewood, NJ, 7450",40.9918601,-74.1048611
League of Historical Societies of NJ,"Museum, Organization",Butler Museum & Historical Committee,One Ace Road,NA,Butler,NJ,07405,973-838-7222,butlermuseumnj.org,NA,"One Ace Road, Butler, NJ, 7405",41.0039271,-74.3439756
League of Historical Societies of NJ,Cultural Site,Hermitage,335 North Franklin Turnpike,NA,Ho-Ho-Kus,NJ,07423,201-445-8311,https://www.hermitage.org,NA,"335 North Franklin Turnpike, Ho-Ho-Kus, NJ, 7423",41.0071284,-74.116627
League of Historical Societies of NJ,Historical Society,Wyckoff Historical Society,NA,P.O. Box 73,Wyckoff,NJ,07481,973-975-5207,wyckoffhistory.org,NA,"NA, Wyckoff, NJ, 7481",41.0095417,-74.1729222
League of Historical Societies of NJ,Cultural Site,Van Voorhees-Quackenbush-Zabriskie House,421 Franklin Avenue,NA,Wyckoff,NJ,07481,201-891-9185,NA,NA,"421 Franklin Avenue, Wyckoff, NJ, 7481",41.009969,-74.1749857
League of Historical Societies of NJ,Historical Society,Oakland Historical Society,NA,P.O. Box 296,Oakland,NJ,07436,201-337-9652,oaklandhistoricalsociety.org,NA,"NA, Oakland, NJ, 7436",41.0220483,-74.2430988
League of Historical Societies of NJ,"Cultural Site, Organization",Lake Mohawk Historic Committee,21 The Boardwalk,NA,Sparta,NJ,07871,973-214-6234,NA,lakemohawkhc@gmail.com,"21 The Boardwalk, Sparta, NJ, 7871",41.0321211,-74.6420777
League of Historical Societies of NJ,Historical Society,Historical Society of Stillwater Township,NA,P.O. Box 238,Stillwater,NJ,07875,973-723-4961,https://www.historicstillwater.org,NA,"NA, Stillwater, NJ, 7875",41.0359303,-74.878225
League of Historical Societies of NJ,Historical Society,Pascack Historical Society,NA,P.O. Box 85,Park Ridge,NJ,07656,201-573-0307,pascackhistoricalsociety.org,NA,"NA, Park Ridge, NJ, 7656",41.0375969,-74.0406956
League of Historical Societies of NJ,Historical Society,Upper Saddle River Historical Society,245 Lake Street,NA,Upper Saddle River,NJ,07458,201-327-6470,usrhistoricalsociety.org,NA,"245 Lake Street, Upper Saddle River, NJ, 7458",41.0595574,-74.0940625
League of Historical Societies of NJ,Historical Society,Sparta Historical Society,336 Main Street,P.O. Box 312,Sparta,NJ,07871,973-726-0883,https://www.vankirkmuseum.org/sparta-historical-society.htm,spartahistoricalsocnj@gmail.com,"336 Main Street, Sparta, NJ, 7871",41.0605835,-74.6045186
League of Historical Societies of NJ,Cultural Site,Bergen County American Revolution Round Table,NA,P.O. Box 1376,Nyack,NY,10960,845-661-1300,NA,rxmem@yahoo.com,"NA, Nyack, NY, 10960",41.091121,-73.9196794
League of Historical Societies of NJ,Museum,Mahwah Museum,201 Franklin Turnpike,NA,Mahwah,NJ,07430,201-512-0099,mahwahmuseum.org,NA,"201 Franklin Turnpike, Mahwah, NJ, 7430",41.093887,-74.144901
League of Historical Societies of NJ,Historical Society,Hardyston Historical & Heritage Society,7 Red Oak Drive,NA,Hardyston,NJ,07419,973-769-2361,NA,billt1425@gmail.com,"7 Red Oak Drive, Hardyston, NJ, 7419",41.1565394,-74.5560859
League of Historical Societies of NJ,Organization,Heritage & Agricultural Association (Lusscroft),NA,P.O. Box 7191,Sussex,NJ,07461,973-288-2760,lusscroftfarm.org,NA,"NA, Sussex, NJ, 7461",41.2098177,-74.6076614
League of Historical Societies of NJ,Cultural Site,Col. Henry Ryerson Civil War Round Table,NA,P. O. Box 161,Layton,NJ,07851,973-948-4724,https://www.ryersoncwrt.org/,NA,"NA, Layton, NJ, 7851",41.2162062,-74.8229451
League of Historical Societies of NJ,Historical Society,Walpack Historical Society,NA,P.O. Box 212,Layton,NJ,07851,973-948-5630,NA,campshapanack@yahoo.com,"NA, Layton, NJ, 7851",41.2162062,-74.8229451
League of Historical Societies of NJ,"Presevation, Organization",Friends of High Point State Park,1480 NJ-23,P.O. Box 817,Sussex,NJ,07461,973-347-4722,friendsofhighpointstatepark.org,NA,"1480 NJ-23, Sussex, NJ, 7461",41.3072697,-74.6716454
Stockton SJCHC Historical Societies & Museums,Education,Underground Railroad Educational Center,194 Livingston Ave,NA,Albany,NY,12210,NA,Home - Underground Railroad Education Center,NA,"194 Livingston Ave, Albany, NY, 12210",42.6610766,-73.7544494
Curated using Google,"Lighthouse, Organization",Delaware Bay Lighthouse Keepers Association,7th St and Beach Ave,NA,Cape May,NJ,08204,NA,NA,NA,"7th St and Beach Ave, Cape May, NJ, 08204",38.930382999999999,-74.915842
Curated using Google,Lighthouse,Cape May Lighthouse,215 Lighthouse Ave,NA,Cape May Point,NJ,08212,NA,NA,NA,"215 Lighthouse Ave, Cape May Point, NJ, 08212",38.937600000000003,-74.9605
Curated using Google,"Lighthouse, Organization",Friends of the Cape May Lighthouse,215 Lighthouse Ave,NA,Cape May Point,NJ,08212,NA,NA,NA,"215 Lighthouse Ave, Cape May Point, NJ, 08212",38.937600000000003,-74.9605
League of Historical Societies of NJ,Cultural Site,Historic Cold Spring Village,720 Route 9,NA,Cape May,NJ,08204,609-898-2300,hcsv.org,NA,"720 Route 9, Cape May, NJ, 8204",38.964300000000001,-74.902
Curated using Google,Historical Society,Delaware Bay Lighthouse Keepers & Friends Association,209 Fourth Ave,NA,Villas,NJ,08251,NA,NA,NA,"209 Fourth Ave, Villas, NJ, 08251",38.992600000000003,-74.937
League of Historical Societies of NJ,Cultural Site,Naval Air Station Wildwood (S),500 Forrestal Road,NA,Rio Grande,NJ,08242,609-886-8787,usnasw.org,NA,"500 Forrestal Road, Rio Grande, NJ, 8242",39.009852000000002,-74.904096
Curated using Google,Museum,Museum of Colonial New Jersey,215 Main St,NA,Stone Harbor,NJ,08247,NA,NA,NA,"215 Main St, Stone Harbor, NJ, 08247",39.050699999999999,-74.7596
League of Historical Societies of NJ,"Historical Society, Genealogy",Cape May County. Historical & Gen. Society,504 Route 9 North,NA,Cape May Court House,NJ,08210,609-465-3535,cmcmuseum.org,NA,"504 Route 9 North, Cape May Court House, NJ, 8210",39.090600000000002,-74.8207
Curated using Google,Organization,Leaming's Run Gardens,1845 Route 9,NA,Swainton,NJ,08210,NA,NA,NA,"1845 Route 9, Swainton, NJ, 08210",39.123399999999997,-74.8056
Curated using Google,Historical Society,Upper Township Historical Society,119 Route 50,NA,Seaville,NJ,08230,NA,NA,NA,"119 Route 50, Seaville, NJ, 08230",39.226168000000001,-74.695486
Curated using Google,Historical Society,Millville Army Airfield Museum,1 Leddon St,NA,Millville,NJ,08332,NA,NA,NA,"1 Leddon St, Millville, NJ, 08332",39.402099999999997,-75.0393
Curated using Google,Historical Society,Township of Weymouth Historical Society,1201 1st Ave,NA,Dorothy,NJ,08317,NA,NA,NA,"1201 1st Ave, Dorothy, NJ, 08317",39.459158000000002,-74.788852
Curated using Google,Historical Society,Mullica Township Historical Society,2 N Clifton Ave,NA,Egg Harbor City,NJ,08215,NA,NA,NA,"2 N Clifton Ave, Egg Harbor City, NJ, 08215",39.528500000000001,-74.341
Stockton SJCHC Historical Societies & Museums,Museum,New Jersey Maritime Museum,Dock Rd. and West Ave,NA,Beach Haven,NJ,08008,609 492 0202,https://njmaritimemuseum.org/,NA,"Dock Rd. and West Ave, Beach Haven, NJ, 8008",39.558855999999999,-74.255518
Curated using Google,Organization,Piney Hollow Heritage Society,210 E Vine St,NA,Williamstown,NJ,08094,NA,NA,NA,"210 E Vine St, Williamstown, NJ, 08094",39.683427999999999,-74.999233
Curated using Google,Historical Society,Historical Society of Winslow Township,9 Cedar Brook Rd,NA,Sicklerville,NJ,08081,NA,NA,NA,"9 Cedar Brook Rd, Sicklerville, NJ, 08081",39.712054999999999,-74.925364
Curated using Google,Historical Society,Washington Township Historical Society,6 Fairview Ave,NA,Sewell,NJ,08080,NA,NA,NA,"6 Fairview Ave, Sewell, NJ, 08080",39.766492999999997,-75.129949
League of Historical Societies of NJ,Historical Society,Waretown Historical Society,182 Wells Mill Rd,P.O. Box 138,Waretown,NJ,08758,609-693-5666,NA,adele170@aol.com,"182 Wells Mill Rd, Waretown, NJ, 8758",39.791572000000002,-74.197978
League of Historical Societies of NJ,Historical Society,Haddon Heights Historical Society,343 Kings Hwy E,P.O. Box 118,Haddon Heights,NJ,08035,856-546-5065,hhhistorical.org,NA,"343 Kings Hwy E, Haddon Heights, NJ, 8035",39.878245999999997,-75.062506
Curated using Google,Bookstore,The Book Rack,2906 Route 73 North,NA,Maple Shade,NJ,08052,NA,NA,NA,"2906 Route 73 North, Maple Shade, NJ, 08052",39.949883999999997,-74.992663
Curated using Google,Bookstore,Bookmarked,108 Lacey Rd Suite 29,NA,Whiting,NJ,08759,NA,NA,NA,"108 Lacey Rd Suite 29, Whiting, NJ, 08759",39.954935999999996,-74.370161
Stockton SJCHC Historical Cultural Sites,Museum,Whitesbog Village,120 W. Whites Bog Road #34,NA,"Browns Mills
",NJ,08015,609.893.4646,http://www.whitesbog.org/,whitesbogpreservationtrust@gmail.com,"120 W. Whites Bog Road #34, Browns Mills
, NJ, 8015",39.964863999999999,-74.507633
Curated using Google,Historical Society,Pennsauken Historical Society,6700 Delair Rd,NA,Pennsauken Township,NJ,08110,NA,NA,NA,"6700 Delair Rd, Pennsauken Township, NJ, 08110",39.986249000000001,-75.063371
Curated using Google,Museum,Ocean County Cultural and Heritage Commission,721 Ridgeway St,NA,Toms River,NJ,08753,NA,NA,NA,"721 Ridgeway St, Toms River, NJ, 08753",40.001080999999999,-74.243287
Curated using Google,Historical Society,Navy Lakehurst Historical Society,546 Route 547,NA,Lakehurst,NJ,08733,NA,NA,NA,"546 Route 547, Lakehurst, NJ, 08733",40.032648999999999,-74.331296
Curated using Google,Historical Society,Brick Township Historical Society/Havens Homestead,610 Herman Rd,NA,Brick,NJ,08724,NA,NA,NA,"610 Herman Rd, Brick, NJ, 08724",40.055711000000002,-74.138186
Curated using Google,Bookstore,Asbury Book Cooperative,916 River Ave #1,NA,Lakewood,NJ,08701,NA,NA,NA,"916 River Ave #1, Lakewood, NJ, 08701",40.094850999999998,-74.214491
Curated using Google,Bookstore,Z Berman Books - Chateau Plaza,916 River Ave #1,NA,Lakewood,NJ,08701,NA,NA,NA,"916 River Ave #1, Lakewood, NJ, 08701",40.094850999999998,-74.214491
Curated using Google,Historical Society,Howell Living History Farm,70 Woodens Ln,NA,Lambertville,NJ,08530,NA,NA,NA,"70 Woodens Ln, Lambertville, NJ, 08530",40.365600000000001,-74.8953
League of Historical Societies of NJ,Historical Society,North Jersey Highlands Historical Society,NA,P.O. Box 248,Ringwood,NJ,07456,973-839-2389,northjerseyhistory.org,NA,"NA, Ringwood, NJ, 7456",41.113428999999996,-74.2454254
Stockton SJCHC Historical Societies & Museums,Cultural Site,Collins-Jones House,E Broad St & York St,NA,Burlington,NJ,08016,NA,http://burlington1677.blogspot.com/2011/09/collins-jones-house.html,NA,"E Broad St & York St, Burlington, NJ, 8016",NA,NA
League of Historical Societies of NJ,Historical Society,Jefferson Township Historical Society,(N)315 Dover-Milton Road,NA,Oak Ridge,NJ,07438,973-697-0258,jthistoricalsociety.org,NA,"(N)315 Dover-Milton Road, Oak Ridge, NJ, 7438",NA,NA
League of Historical Societies of NJ,"Presevation, Organization",Bergen County Division of Culture & Heritage,1 Bergen Co. Plaza,NA,Hackensack,NJ,07601,201-336-7267,NA,jstrom@co.bergen.nj.us,"1 Bergen Co. Plaza, Hackensack, NJ, 7601",NA,NA
League of Historical Societies of NJ,Historical Society,Frelinghuysen Historical Society,10 Old Stage Road,NA,Newton,NJ,07860,908-362-6800,NA,oldstage@verizon.net,"10 Old Stage Road, Newton, NJ, 7860",NA,NA
Curated using Google,Historical Society,Riverside Historical Society,10 Zurbrugg Way,NA,Riverside,NJ,08075,NA,NA,NA,"10 Zurbrugg Way, Riverside, NJ, 08075",NA,NA
League of Historical Societies of NJ,Museum,Roebling Museum,100 2nd Avenue,P.O. Box 9,Roebling,NJ,08554,609-499-7200,roeblingmuseum.org,NA,"100 2nd Avenue, Roebling, NJ, 8554",NA,NA
League of Historical Societies of NJ,Historical Society,Historical Society of South Amboy,100 Harold Hoffman Plaza,NA,South Amboy,NJ,08879,732-991-6185,hsofsouthamboy.wix.com/HSSA,historicalsocietyofsouthamboy@gmail.com,"100 Harold Hoffman Plaza, South Amboy, NJ, 8879",NA,NA
League of Historical Societies of NJ,"Presevation, Organization",Friends of Howell Farm,101 Hunter Road,NA,Titusville,NJ,08560,609-737-3299,howellfarm.org,NA,"101 Hunter Road, Titusville, NJ, 8560",NA,NA
League of Historical Societies of NJ,Museum,John F. Peto Studio Museum,102 Cedar Avenue,P.O. Box 1022,Island Heights,NJ,08732,732-929-4949,petomuseum.org,rgsalva@petomuseum.org,"102 Cedar Avenue, Island Heights, NJ, 8732",NA,NA
League of Historical Societies of NJ,Organization,New Jersey State Organization of Questers,109 Ridgeway Drive,NA,Bordentown,NJ,08505,609-529-5925,NA,nancycall@gmail.com,"109 Ridgeway Drive, Bordentown, NJ, 8505",NA,NA
League of Historical Societies of NJ,Organization,Chinkchewunska Chapter D.A.R.,1097 Route 23 North,NA,Wantage,NJ,07461,973-875-7634,rootsweb.ancestry.com/~njdar/Chinkchewunska/chapter.html,ashelyziccardi@gmail.com,"1097 Route 23 North, Wantage, NJ, 7461",NA,NA
League of Historical Societies of NJ,"Presevation, Organization",Discover Central NJ,1135 Canal Road,NA,Princeton,NJ,08540,908-227-5581,NA,info@discovercentralnj.com,"1135 Canal Road, Princeton, NJ, 8540",NA,NA
League of Historical Societies of NJ,Historical Society,Union County Historical Society,116 East Fourth Avenue,NA,Roselle,NJ,07203,908-245-9010,unioncountyhistoricalsocietynj.org,NA,"116 East Fourth Avenue, Roselle, NJ, 7203",NA,NA
League of Historical Societies of NJ,Organization,Union Forge Heritage Association,117 Van Syckles Road,NA,Hampton,NJ,08827,NA,NA,UFHANJ@hotmail.com,"117 Van Syckles Road, Hampton, NJ, 8827",NA,NA
League of Historical Societies of NJ,"Presevation, Organization",Ocean County Cultural and Heritage Commission,1198 Brandon Road,NA,Toms River,NJ,08753,732-929-4779,http://www.ocean.nj.us/museums/index.htm,culturalheritage@co.ocean.nj.us,"1198 Brandon Road, Toms River, NJ, 8753",NA,NA
League of Historical Societies of NJ,"Presevation, Organization",Manalapan Twp Historical Committee,120 Route 522,NA,Manalapan,NJ,07726,732-446-8308,NA,mhc@mtnj.org,"120 Route 522, Manalapan, NJ, 7726",NA,NA
League of Historical Societies of NJ,Organization,Whitesbog Preservation Trust,120 West Whites Bogs Road #34,NA,Browns Mills,NJ,08015,609-893-4646,whitesbog.org,NA,"120 West Whites Bogs Road #34, Browns Mills, NJ, 8015",NA,NA
League of Historical Societies of NJ,Archives,Monmouth County Archives,125 Symmes Drive,NA,Manalapan,NJ,07726,732-308-3771,visitmonmouth.com/archives,gsaretzk@co.monmouth.nj.us,"125 Symmes Drive, Manalapan, NJ, 7726",NA,NA
League of Historical Societies of NJ,Historical Society,New Jersey Postal History Society,125 Turtleback Road,NA,Califon,NJ,07830,908-832-9578,njpostalhistory.org,NA,"125 Turtleback Road, Califon, NJ, 7830",NA,NA
League of Historical Societies of NJ,"Presevation, Organization",Sussex County Arts & Heritage Council,133 Spring Street,NA,Newton,NJ,07860,973-383-0027,scahc.org,NA,"133 Spring Street, Newton, NJ, 7860",NA,NA
League of Historical Societies of NJ,"Museum, Organization",Mountainside Restoration Committee,1385 Route 22 East,NA,Mountainside,NJ,07092,908-789-9420,mountainsidehistory.org,NA,"1385 Route 22 East, Mountainside, NJ, 7092",NA,NA
League of Historical Societies of NJ,"Presevation, Organization",Friends of Monmouth Battlefield,16 Highway 33-BR,P.O. Box 122,Manalapan,NJ,07726,609-448-6355,friendsofmonmouth.org,NA,"16 Highway 33-BR, Manalapan, NJ, 7726",NA,NA
League of Historical Societies of NJ,Museum,Holcombe-Jimison Farmstead Museum,1605 Daniel Bray Highway,NA,Lambertville,NJ,08530,908-788-5885,holcombe-jimison.org,NA,"1605 Daniel Bray Highway, Lambertville, NJ, 8530",NA,NA
League of Historical Societies of NJ,Historical Society,Jewish Historical Society of North Jersey,17-10 River Road Suite 3A,NA,Fair Lawn,NJ,07410,201-300-6590,https://jhsnj.wordpress.com,NA,"17-10 River Road Suite 3A, Fair Lawn, NJ, 7410",NA,NA
Stockton SJCHC Historical Societies & Museums,Museum,NJ Museum of Boating,1800 Bay Ave building 13,NA,Point Pleasant Beach,NJ,08742,NA,http://www.njmb.org/,NA,"1800 Bay Ave building 13, Point Pleasant Beach, NJ, 8742",NA,NA
League of Historical Societies of NJ,Historical Society,Pohatcong History & Heritage Society,20 Municipal Drive,NA,Phillipsburg,NJ,08865,908-387-1493,pohatconghistory.com,NA,"20 Municipal Drive, Phillipsburg, NJ, 8865",NA,NA
League of Historical Societies of NJ,Historical Society,Waterford Township Historical Society Inc.,2294 Linden Avenue,P.O. Box 344,Atco,NJ,08004,856-768-1486,NA,TLC29us@yahoo.com,"2294 Linden Avenue, Atco, NJ, 8004",NA,NA
League of Historical Societies of NJ,Museum,Stickley Museum at Craftsman Farms,2352 Route 10 West,NA,Morris Plains,NJ,07950,973-540-0311,stickleymuseum.org,NA,"2352 Route 10 West, Morris Plains, NJ, 7950",NA,NA
League of Historical Societies of NJ,Cultural Site,North Jersey Civil War Round Table,3 Cambridge Road,NA,Morris Plains,NJ,07950,973-267-9075,NA,NJCivilWarRTt@aol.com,"3 Cambridge Road, Morris Plains, NJ, 7950",NA,NA
League of Historical Societies of NJ,Historical Society,Harmony Township Historical Society,3026 Belvidere Road,P.O. Box 123,Belvidere,NJ,08865,908-213-1600,HoffVannattaFarm.org,historicalcomm@aol.com,"3026 Belvidere Road, Belvidere, NJ, 8865",NA,NA
League of Historical Societies of NJ,Museum,Endicott Reardon Family Museum,3036 Shore Road (Route 9),NA,Seaville,NJ,08230,609-624-0600,ermuseum.com,NA,"3036 Shore Road (Route 9), Seaville, NJ, 8230",NA,NA
League of Historical Societies of NJ,Museum,Jewish Heritage Museum of Monmouth County,310 Mounts Corner Drive,NA,NA,NJ,NA,732-252-6990,NA,jhmomc@optonline.net,"310 Mounts Corner Drive, NJ",NA,NA
League of Historical Societies of NJ,Historical Society,Monroe Township Historical Society,313 South Main Street,NA,Montague,NJ,07827,856-875-2943,montaguehistory.org,NA,"313 South Main Street, Montague, NJ, 7827",NA,NA
Stockton SJCHC Historical Cultural Sites,Cultural Site,Walt Whitman House,328 Mickle Boulevard/Martin Luther King Jr.Blvd,NA,Camden,NJ,08103,856-964-5383,http://www.njparksandforests.org/historic/whitman/index.html,NA,"328 Mickle Boulevard/Martin Luther King Jr.Blvd, Camden, NJ, 8103",NA,NA
League of Historical Societies of NJ,Historical Society,Tuckerton Historical Society,35 Leitz Blvd. & Wisteria Lane,P.O. Box 43,Tuckerton,NJ,08087,856-294-1547,http://www.tuckertonhistoricalsociety.org/,NA,"35 Leitz Blvd. & Wisteria Lane, Tuckerton, NJ, 8087",NA,NA
League of Historical Societies of NJ,Historical Society,Sussex-Wantage Historical Society,37 Main Street,P.O. Box 212,Sussex,NJ,07461,973-864-7852,www.swhistoric.org,NA,"37 Main Street, Sussex, NJ, 7461",NA,NA
League of Historical Societies of NJ,Cultural Site,Frazee House,401 Fairview Avenue,Apt. 205,Colonia,NJ,07067,732-423-1042,NA,jastrunk1@gmail.com,"401 Fairview Avenue, Colonia, NJ, 7067",NA,NA
League of Historical Societies of NJ,Historical Society,Madison-Old Bridge Township Historical Society,4216 Route 516,NA,Matawan,NJ,07747,732-566-2108,thomas-warne-museum.com,NA,"4216 Route 516, Matawan, NJ, 7747",NA,NA
League of Historical Societies of NJ,Cultural Site,Allaire Village,4263 Atlantic Avenue,P.O. Box 220,Farmingdale,NJ,07727,732-919-3500,allairevillage.org,info@allairevillage.org,"4263 Atlantic Avenue, Farmingdale, NJ, 7727",NA,NA
Stockton SJCHC Historical Societies & Museums,Cultural Site,Bard-How House,453 High Street,NA,Burlington,NJ,08016,NA,http://burlington1677.blogspot.com/2011/09/bard-how-house.html,NA,"453 High Street, Burlington, NJ, 8016",NA,NA
Stockton SJCHC Historical Societies & Museums,Cultural Site,James Fenimore Cooper House,457 High St,NA,Burlington,NJ,08016,NA,http://burlington1677.blogspot.com/2011/09/james-fenimore-cooper-house.html,NA,"457 High St, Burlington, NJ, 8016",NA,NA
Stockton SJCHC Historical Societies & Museums,Cultural Site,Captain James Lawrence House,459 High Street,NA,Burlington,NJ,08016,NA,http://burlington1677.blogspot.com/2011/09/james-lawrence-house.html,NA,"459 High Street, Burlington, NJ, 8016",NA,NA
League of Historical Societies of NJ,Cultural Site,United Daughters of  Confederacy,4660 St. Elizabeth Terrace,NA,Vero Beach,FL,32967,908-930-6491,Isaac W. K. Handy Chapter 2658,sallie.debarcza@gmail.com,"4660 St. Elizabeth Terrace, Vero Beach, FL, 32967",NA,NA
Stockton SJCHC Historical Societies & Museums,Museum,Naval Air Station Wildwood Museum,500 Forrestal Rd,Cape May Airport,Cape May,NJ,08204,609 886 8787,NA,NA,"500 Forrestal Rd, Cape May, NJ, 8204",NA,NA
League of Historical Societies of NJ,Historical Society,Van Harlingen Historical Society,506 Rt. 601,P.O. Box 23,Belle Mead,NJ,08502,908-359-5820,vanharlingen.org,NA,"506 Rt. 601, Belle Mead, NJ, 8502",NA,NA
Curated using Google,Gift shop,Unique & Whimsical,540 US-9 unit 2,NA,Tuckerton,NJ,08087,NA,NA,NA,"540 US-9 unit 2, Tuckerton, NJ, 08087",NA,NA
League of Historical Societies of NJ,Museum,Red Mill Museum Village,56 Main Street,NA,Clinton,NJ,08809,908-735-4101,theredmill.org,rockingham.net/association,"56 Main Street, Clinton, NJ, 8809",NA,NA
League of Historical Societies of NJ,Museum,Lebanon Township Museum,57 Musconetcong River Road,NA,Hampton,NJ,08826,NA,kean.edu/libertyhall/,museum@lebtwp.net,"57 Musconetcong River Road, Hampton, NJ, 8826",NA,NA
League of Historical Societies of NJ,Historical Society,Phillipsburg Historical Society,627 Charles Road,NA,Phillipsburg,NJ,08865,908-391-5945,phillipsburghistory.com,NA,"627 Charles Road, Phillipsburg, NJ, 8865",NA,NA
League of Historical Societies of NJ,Historical Society,Historical Society of Old Randolph,630 Millbrook Avenue,P.O. Box 1776,Ironia,NJ,07845,973-989-7095,randolphnj.org,NA,"630 Millbrook Avenue, Ironia, NJ, 7845",NA,NA
League of Historical Societies of NJ,Historical Society,Bay Head Historical Society,643 Bay Avenue,P.O. Box 127,Point Pleasant,NJ,08742,732-714-7552,bayheadhistoricalsociety.com,NA,"643 Bay Avenue, Point Pleasant, NJ, 8742",NA,NA
League of Historical Societies of NJ,Cultural Site,Princeton Preservation Group,700 Trumbull Avenue,NA,Lawrenceville,NJ,08648,609-392-4484,www.princetonpreservation.org,NA,"700 Trumbull Avenue, Lawrenceville, NJ, 8648",NA,NA
League of Historical Societies of NJ,Museum,Township of Ocean Historical Museum,703 Deal Road,P.O. Box 516,Oakhurst,NJ,07755,732-531-2136,oceanmuseum.org,NA,"703 Deal Road, Oakhurst, NJ, 7755",NA,NA
League of Historical Societies of NJ,Cultural Site,Warren County Cultural & Heritage Affairs,8 Belvedere Avenue,NA,Oxford,NJ,07863,908-453-4381,warrenparks.com/wcchc/,grosseland@co.warren.nj.us,"8 Belvedere Avenue, Oxford, NJ, 7863",NA,NA
League of Historical Societies of NJ,"Presevation, Organization",Friends of Smithville Mansion,803 Smithville Rd,P.O. Box 6000,Mount Holly,NJ,08060,609-261-3295,smithvillemansion.org,NA,"803 Smithville Rd, Mount Holly, NJ, 8060",NA,NA
League of Historical Societies of NJ,Historical Society,Sussex County Historical Society,82 Main Street,P.O. Box 913,Newton,NJ,07860,973-383-6010,sussexcountyhistory.org,NA,"82 Main Street, Newton, NJ, 7860",NA,NA
League of Historical Societies of NJ,Museum,Museum of Early Trades and Crafts,9 Main Street,NA,Madison,NJ,07940,973-377-2982,metc.org,NA,"9 Main Street, Madison, NJ, 7940",NA,NA
League of Historical Societies of NJ,Historical Society,Jewish Historical Society of New Jersey,901 Route 10 East,NA,Whippany,NJ,07981,973-929-2995,jhs-nj.org,NA,"901 Route 10 East, Whippany, NJ, 7981",NA,NA
Curated using Google,Historical Society,Mount Holly Historical Society,91 Park Avenue,NA,Mount Holly,NJ,08060,NA,NA,NA,"91 Park Avenue, Mount Holly, NJ, 08060",NA,NA
League of Historical Societies of NJ,Cultural Site,Mount Amwell Project,97 Bissell Road,NA,Lebanon,NJ,08833,908-236-0276,mtamwell.org,NA,"97 Bissell Road, Lebanon, NJ, 8833",NA,NA
League of Historical Societies of NJ,Historical Society,Madison Historical Society,NA,P.O. Box 148,Madison,NJ,07940,973-377-0722 x8,madisonhistoricalsociety.org,NA,"NA, Madison, NJ, 7940",NA,NA
League of Historical Societies of NJ,Historical Society,Chester Historical Society,NA,P.O. Box 376,Chester,NJ,07930,908-879-2761,historicchesternj.com,chester.historical.society@gmail.com,"NA, Chester, NJ, 7930",NA,NA
League of Historical Societies of NJ,Cultural Site,Judgson Lecture Series,NA,P.O. Box 513,Convent Station,NJ,09961,973-818-1069,NA,jimphdesgrp@yahoo.com,"NA, Convent Station, NJ, 9961",NA,NA
League of Historical Societies of NJ,Historical Society,Jersey Central Railway Historical Society,NA,P.O. Box 700,Clark,NJ,07066,908-233-3603,jcrhs.org,NA,"NA, Clark, NJ, 7066",NA,NA
Curated using Google,Historical Society,Westampton Historical Society,P.O. Box 132,NA,Rancocas,NJ,08073,NA,NA,NA,"P.O. Box 132, Rancocas, NJ, 08073",NA,NA
Curated using Google,Historical Society,Southampton Historical Society,P.O. Box 2086,NA,Southampton,NJ,08088,NA,NA,NA,"P.O. Box 2086, Southampton, NJ, 08088",NA,NA
League of Historical Societies of NJ,"Presevation, Organization",Lafayette Center Preservation Foundation,Route 15,P.O. Box 702,Lafayette,NJ,07848,973-383-5801,lafayettepreservation.org,NA,"Route 15, Lafayette, NJ, 7848",NA,NA
Stockton SJCHC Sites of Interest,Online Resources,Bass River Township History Blog,NA,NA,NA,NJ,NA,NA,http://bassriverhistory.blogspot.com/,http://www.bassriverhistory.org/index.html,"NA, NJ",,
Stockton SJCHC Historical Societies & Museums,Cultural Site,Beachwood Historical Alliance,NA,NA,NA,NJ,NA,NA,http://beachwoodhistoricalalliance.wordpress.com/,NA,"NA, NJ",,
Stockton SJCHC Sites of Interest,Online Resources,Revolutionary War Patriot Graves in Southern New Jersey,NA,NA,NA,NJ,NA,NA,http://jytangledweb.org/patriotgraves/,NA,"NA, NJ",,
Stockton SJCHC Sites of Interest,Online Resources,Historical Maps of New Jersey,NA,NA,NA,NJ,NA,NA,http://mapmaker.rutgers.edu/MAPS.html,NA,"NA, NJ",,
Stockton SJCHC Sites of Interest,Online Resources,Ocean County Compendium of History,NA,NA,NA,NJ,NA,NA,http://ochistory.org/,NA,"NA, NJ",,
Stockton SJCHC Historical Societies & Museums,Historical Society,Historical Society of Riverton,NA,NA,NA,NJ,NA,NA,http://rivertonhistory.com/,NA,"NA, NJ",,
Stockton SJCHC Sites of Interest,Online Resources,West Jersey and South Jersey Heritage,NA,NA,NA,NJ,NA,NA,http://westjersey.org/,NA,"NA, NJ",,
Stockton SJCHC Historical Societies & Museums,Historical Society,Township of Weymouth Historical Society,NA,NA,NA,NJ,NA,NA,http://weymouthhistory.org/historic_society.htm,NA,"NA, NJ",,
Stockton SJCHC Sites of Interest,Online Resources,History of Atlantic County,NA,NA,NA,NJ,NA,NA,http://www.aclink.org/HISTORY/homepage.asp,NA,"NA, NJ",,
Stockton SJCHC Historical Cultural Sites,Online Resources,Historic Sites in Atlantic County,NA,NA,NA,NJ,NA,NA,http://www.aclink.org/PARKS/mainpages/historic.asp,NA,"NA, NJ",,
Stockton SJCHC Digital Museum,Digital Museum,Avalon History Center,NA,NA,NA,NJ,NA,NA,http://www.avalonhistorycenter.org/,NA,"NA, NJ",,
Stockton SJCHC Historical Societies & Museums,Historical Society,Wildwood Crest Historial Society,NA,NA,NA,NJ,NA,NA,http://www.cresthistory.org/,kirkhastings5@aol.com,"NA, NJ",,
Stockton SJCHC Historical Societies & Museums,Cultural Site,Delanco Township,NA,NA,NA,NJ,NA,NA,http://www.delancotownship.com/,NA,"NA, NJ",,
Stockton SJCHC Historical Cultural Sites,Cultural Site,Hancock House,NA,NA,NA,NJ,NA,NA,http://www.fohh.20fr.com/index.html,NA,"NA, NJ",,
Stockton SJCHC Sites of Interest,Online Resources,New Jersey Place Names,NA,NA,NA,NJ,NA,NA,http://www.genealogy-quest.com/collections/njplace.html,NA,"NA, NJ",,
Stockton SJCHC Sites of Interest,Online Resources,History of Lakewood (Georgian Court University),NA,NA,NA,NJ,NA,NA,http://www.georgian.edu/lakewood_nj/index.htm,NA,"NA, NJ",,
Stockton SJCHC Sites of Interest,Online Resources,New Jersey Cemetery Records,NA,NA,NA,NJ,NA,NA,http://www.interment.net/us/nj/index.htm,NA,"NA, NJ",,
Stockton SJCHC Historical Cultural Sites,"Online Resources, Lighthouse, Association",New Jersey Lighthouses,NA,NA,NA,NJ,NA,NA,http://www.lighthousefriends.com/pull-state.asp?state=NJ&Submit=Go,NA,"NA, NJ",,
Stockton SJCHC Historical Cultural Sites,Online Resources,New Jersey National Register of Historic Places,NA,NA,NA,NJ,NA,NA,http://www.nationalregisterofhistoricplaces.com/nj/state.html,NA,"NA, NJ",,
Stockton SJCHC Sites of Interest,Online Resources,History of Newfield,NA,NA,NA,NJ,NA,NA,http://www.newfieldboro.org/8.html,NA,"NA, NJ",,
Stockton SJCHC Sites of Interest,Online Resources,New Jersey Churchscape,NA,NA,NA,NJ,NA,NA,http://www.njchurchscape.com/,NA,"NA, NJ",,
Stockton SJCHC Sites of Interest,Online Resources,New Jersey History Mysteries,NA,NA,NA,NJ,NA,NA,http://www.njhm.com/,NA,"NA, NJ",,
Stockton SJCHC Sites of Interest,Online Resources,NJ Pine Barrens,NA,NA,NA,NJ,NA,NA,http://www.njpinebarrens.com/,NA,"NA, NJ",,
Stockton SJCHC Sites of Interest,Online Resources,Pine Barrens Byway,NA,NA,NA,NJ,NA,NA,http://www.pinebarrensbyway.org/,NA,"NA, NJ",,
Stockton SJCHC Sites of Interest,Online Resources,Piney Power,NA,NA,NA,NJ,NA,NA,http://www.pineypower.com/,NA,"NA, NJ",,
Stockton SJCHC Historical Cultural Sites,Online Resources,New Jersey Revolutionary War Sites,NA,NA,NA,NJ,NA,NA,http://www.revolutionarywarnewjersey.com/new_jersey_revolutionary_war_sites/index.htm,NA,"NA, NJ",,
Stockton SJCHC Historical Societies & Museums,Historical Society,Historical Society of Winslow Township,NA,NA,NA,NJ,NA,NA,http://www.rootsweb.ancestry.com/~njhswt/,NA,"NA, NJ",,
Stockton SJCHC Historical Societies & Museums,"Cultural Site, Organization",South Jersey Cultural Alliance,NA,NA,NA,NJ,NA,NA,http://www.sjca.net/,NA,"NA, NJ",,
Stockton SJCHC Historical Cultural Sites,Online Resources,New Jersey State Historic Sites,NA,NA,NA,NJ,NA,NA,http://www.state.nj.us/dep/parksandforests/historic/index.html,NA,"NA, NJ",,
Stockton SJCHC Historical Societies & Museums,Online Resources,Harrisville Village Video Podcast,NA,NA,NA,NJ,NA,NA,http://www.state.nj.us/dep/parksandforests/parks/docs/pinelandsalliance_308.zip,NA,"NA, NJ",,
Stockton SJCHC Historical Societies & Museums,Historical Society,Historical Preservation Society of Upper Township,NA,NA,NA,NJ,NA,NA,http://www.uppertwphistory.org/index.htm,NA,"NA, NJ",,
Stockton SJCHC Historical Societies & Museums,Cultural Site,Creative Glass Center of America,NA,NA,NA,NJ,NA,NA,http://www.wheatonarts.org/creativeglasscenteramerica,NA,"NA, NJ",,
Stockton SJCHC Sites of Interest,Online Resources,History of Westville NJ,NA,NA,NA,NJ,NA,NA,http://www2.westville-nj.com/borough-history/,NA,"NA, NJ",,
Stockton SJCHC Historical Societies & Museums,Historical Society,Woodland Township Historical Society,NA,NA,NA,NJ,NA,NA,https://museumsdatabase.com/museums/view/19671,NA,"NA, NJ",,
Stockton Historical Societies & Museums,Digital Museum,Alliance Heritage Center Digital Museum,NA,NA,NA,NJ,NA,NA,https://www.allianceheritagecenter.com/,NA,"NA, NJ",,
Stockton SJCHC Sites of Interest,Online Resources,Elk Township History,NA,NA,NA,NJ,NA,NA,https://www.warrenhistory.org/elk%20twp%20hist%20soc.html,elktwphistorical@verizon.net,"NA, NJ",,
Stockton SJCHC Historical Cultural Sites,"Cultural Site, Organization",Smithville Conservancy,NA,NA,NA,NJ,NA,NA,NA,NA,"NA, NJ",,
Stockton SJCHC Sites of Interest,Online Resources,Beach Haven NJ Then and Now,NA,NA,NA,NJ,NA,NA,NA,NA,"NA, NJ",,
Stockton SJCHC Sites of Interest,Online Resources,Discover Salem County,NA,NA,NA,NJ,NA,NA,NA,NA,"NA, NJ",,
Stockton SJCHC Sites of Interest,Online Resources,Five Mile Beach Journal,NA,NA,NA,NJ,NA,NA,NA,NA,"NA, NJ",,
League of Historical Societies of NJ,Historical Society,Historical Society of Scotch Plains/Fanwood,NA,P.O Box 261,NA,NJ,NA,908-322-6700,historicalsocietyspfnj.org,NA,"NA, NJ",,
League of Historical Societies of NJ,Historical Society,Hawthorne Historical Society,NA,P.O. Box 90,NA,NJ,NA,201-694-8664,NA,hawthornehistoricalsociety@gmail.com,"NA, NJ",,
